safegraph_place_id,location_name,top_category,sub_category,street_address,city,state,postal_code
sg:f7068cc1eb1c4a2e9fd3ef97b356b26f,Rock Cut Brewing Company,Beverage Manufacturing,Breweries,390 W Riverside Dr,Estes Park,CO,80517
sg:1320e0cc3a2d49ada45b9f1fbd8042ee,Rocky Mountain Gateway Gift Store,"Office Supplies, Stationery, and Gift Stores","Gift, Novelty, and Souvenir Stores",3450 Fall River Rd,Estes Park,CO,80517
sg:e638894784574376be340beca64a41b3,Safeway,Grocery Stores,Supermarkets and Other Grocery (except Convenience) Stores,451 E Wonder View Ave,Estes Park,CO,80517
sg:da6c78cf1f0f47168c4b6bc232c59033,Kirks Fly Shop,"Sporting Goods, Hobby, and Musical Instrument Stores",Sporting Goods Stores,230 E Elkhorn Ave,Estes Park,CO,80517
sg:472b65fd59274dc7824f630fdca70dcb,Estes Park Pet Supply,Other Miscellaneous Store Retailers,Pet and Pet Supplies Stores,453 E Wonder View Ave Unit 4,Estes Park,CO,80517
sg:3274bac9c17047aaac3333f91db2b61e,Estes Ark,Used Merchandise Stores,Used Merchandise Stores,521 Lone Pine Dr,Estes Park,CO,80517
sg:6fbe634bf4dd4083b09208da543ee23d,Create A Cut,Personal Care Services,Beauty Salons,911 Juniper Ln,Estes Park,CO,80517
sg:d89fe4b073464863a6c4c736613d9f55,Shepherd of Mountain Lutheran Church,Religious Organizations,Religious Organizations,2000 Ptarmigan Trl,Estes Park,CO,80517
sg:99fedf498efb4a6a869d2bab9ef04da6,Estes Park Marina and Park,"Museums, Historical Sites, and Similar Institutions",Nature Parks and Other Similar Institutions,Estes Park Marina And Park,Estes Park,CO,80517
sg:44c98efeb17848749759adcf45043793,Best Western,Traveler Accommodation,Hotels (except Casino Hotels) and Motels,1260 Big Thompson Ave,Estes Park,CO,80517
sg:67d49d1e9107430c8a4291504dc5c3fe,Dao House,Traveler Accommodation,Hotels (except Casino Hotels) and Motels,6120 Colorado 7,Estes Park,CO,80517
sg:9d701fcff0dd4a2193f24b423fbb609a,Mountain Dew Liquor,"Beer, Wine, and Liquor Stores","Beer, Wine, and Liquor Stores",182 S Saint Vrain Ave,Estes Park,CO,80517
sg:39a65361a8194468a4d73d06e992d1d9,Ferrellgas,Direct Selling Establishments,Fuel Dealers,1755 State Highway 66,Estes Park,CO,80517
sg:71d57aa5ba27420989d799c99b94273d,Park Fellowship Church,Religious Organizations,Religious Organizations,340 S Saint Vrain Ave,Estes Park,CO,80517
sg:f0a13d5150b84e65be77ff6bdb1b6156,The Stanley Hotel Ghosts and History Tour,Restaurants and Other Eating Places,Snack and Nonalcoholic Beverage Bars,333 E Wonder View Ave,Estes Park,CO,80517
sg:9772299d4e1044f98a4be68170651f3d,Patterson Glassworks,Other Miscellaneous Store Retailers,Art Dealers,323 W Elkhorn Ave,Estes Park,CO,80517
sg:c2578712dc6a47eab60732ab6b41ccd1,Thomas Chris,Religious Organizations,Religious Organizations,514 Pole Hill Rd,Estes Park,CO,80517
sg:6e1698436a8f44f88409a72bcaa10521,Two Chicks Wings And Henhouse Eatery,Restaurants and Other Eating Places,Full-Service Restaurants,390 W Riverside Dr,Estes Park,CO,80517
sg:b40166874ef04f19a2d4918b98bb2cce,Lazy B Chuckwagon and Show,Motion Picture and Video Industries,Motion Picture Theaters (except Drive-Ins),600 W Elkhorn Ave,Estes Park,CO,80517
sg:2463f9067d64430dacb085babe546326,The Ridgeline Hotel Estes Park Ascend Hotel Collection Member,Traveler Accommodation,Hotels (except Casino Hotels) and Motels,101 S Saint Vrain Ave,Estes Park,CO,80517
sg:743112b7c9154ef3aeb9ff5c4535a4bc,Estes Park Public Library,Other Information Services,Libraries and Archives,335 E Elkhorn Ave,Estes Park,CO,80517
sg:31c56643995149149d161293eb777674,Estes Park Times & Old Fashioned Candy,Specialty Food Stores,Confectionery and Nut Stores,102 W Elkhorn Ave,Estes Park,CO,80517
sg:f63499e2f1fc40ecb060abfba9c6d40d,PM Online Enterprises,Wired and Wireless Telecommunications Carriers,Wireless Telecommunications Carriers (except Satellite),650 Aspen Ave,Estes Park,CO,80517
sg:338020affb2e4d91a939f76488b3aa17,Estes Park Learning Place,Other Schools and Instruction,Exam Preparation and Tutoring,1191 Woodstock Dr Unit A,Estes Park,CO,80517
sg:d0efa3759a5d437ba91fcbe2c22b3a36,Primerica,Other Financial Investment Activities,Investment Advice,433 W Elkhorn Ave,Estes Park,CO,80517
sg:304cc697806c46f5a3fc7943b14c6703,Rocky Mountain Pharmacy of Estes Park,Grocery Stores,Supermarkets and Other Grocery (except Convenience) Stores,455 E Wonder View Ave Unit B1,Estes Park,CO,80517
sg:85e137af776649e1977244306a8edfd0,Saddle & Surrey Motel,Traveler Accommodation,Hotels (except Casino Hotels) and Motels,1341 S Saint Vrain Ave,Estes Park,CO,80517
sg:7d2d8365a3974171ada24ecf37c31e56,Childrens Park,"Museums, Historical Sites, and Similar Institutions",Nature Parks and Other Similar Institutions,Riverside Dr,Estes Park,CO,80517
sg:a0bd67357140417495eebb92cae531cf,Liz & Jo's,Clothing Stores,Women's Clothing Stores,513 Big Thompson Ave,Estes Park,CO,80517
sg:53a1f556873d4d5694b07c5e6ac9c737,CrossFit,Other Amusement and Recreation Industries,Fitness and Recreational Sports Centers,1755 State Highway 66,Estes Park,CO,80517
sg:b759413443e241b2b49b6030c1e6bee1,Estes Park Rock Climbing,"Sporting Goods, Hobby, and Musical Instrument Stores",Sporting Goods Stores,1230 Big Thompson Ave,Estes Park,CO,80517
sg:2dd8769ec41f466d85b45eb681a1660e,The Danish Cone Factory,Restaurants and Other Eating Places,Snack and Nonalcoholic Beverage Bars,191 W Elkhorn Ave,Estes Park,CO,80517
sg:cbba4fb6f3804ece87be099324167b48,Estes Park Campground at East Portal,"Museums, Historical Sites, and Similar Institutions",Nature Parks and Other Similar Institutions,3420 Tunnel Rd,Estes Park,CO,80517
sg:389b63ef10ea41748f90dd99fd603f65,Kep Expeditions,Restaurants and Other Eating Places,Snack and Nonalcoholic Beverage Bars,125 Boyd Ln,Estes Park,CO,80517
sg:d88f69b28c894a5cbb418de46d9ed492,Domino's Pizza,Restaurants and Other Eating Places,Limited-Service Restaurants,457 E Wonder View Ave,Estes Park,CO,80517
sg:6676abde20fe4de6a592dcdaa70fbe24,Alpine Trail Ridge Inn,Traveler Accommodation,Hotels (except Casino Hotels) and Motels,927 Moraine Ave,Estes Park,CO,80517
sg:8f119eb7db3f4a83af215eb4b230f2b2,Rocky Mountain Deli,Restaurants and Other Eating Places,Snack and Nonalcoholic Beverage Bars,541 Big Thopson Ave Unit B,Estes Park,CO,80517
sg:dac507abee794c0bac0ea2b4bb9e8006,Sports Hound,Clothing Stores,Family Clothing Stores,160 W Elkhorn Ave,Estes Park,CO,80517
sg:9230af6c8d384f818ca427d1a329447f,Tregent Park,"Museums, Historical Sites, and Similar Institutions",Nature Parks and Other Similar Institutions,295 W Elkhorn Ave,Estes Park,CO,80517
sg:05218af35eca40e09582556e3f7fdf0d,The Cabin Store,"Jewelry, Luggage, and Leather Goods Stores",Jewelry Stores,213 W Elkhorn Ave Ste 7,Estes Park,CO,80517
sg:c4d33e73ec9446b8948b594c9c03c45b,Estes Park Escape Rooms Clueology,"Machinery, Equipment, and Supplies Merchant Wholesalers",Industrial Machinery and Equipment Merchant Wholesalers,541 Big Thompson Ave,Estes Park,CO,80517
sg:37e1c06c8a4b4d40b87bcbd23f10ff2a,Rapid Transit Rafting,Traveler Accommodation,Hotels (except Casino Hotels) and Motels,161 Virginia Dr,Estes Park,CO,80517
sg:9d2da38f250a4168bcfcee3156a19e01,Fall River Village,Traveler Accommodation,Hotels (except Casino Hotels) and Motels,200 Filbey Ct,Estes Park,CO,80517
sg:0f3d660a98624fe9b3c326091f01e8eb,U.S. Bank,Depository Credit Intermediation,Commercial Banking,363 East Elkhorn Ave,Estes Park,CO,80517
sg:6f50ecc5e5114418a4eeba4e089480c8,State Farm,"Agencies, Brokerages, and Other Insurance Related Activities",Insurance Agencies and Brokerages,501 Saint Vrain Ln,Estes Park,CO,80517
sg:486da1cb3bfc4844be55441ef260269d,Scratch Deli and Bakery,Restaurants and Other Eating Places,Full-Service Restaurants,911 Moraine Ave,Estes Park,CO,80517
sg:7d99c40c52664866b0c99622cca3c050,Accountants Cabin,"Accounting, Tax Preparation, Bookkeeping, and Payroll Services",Tax Preparation Services,517 Big Thompson Ave,Estes Park,CO,80517
sg:d0bb7d81e3e64f72bb35c1ef5fad1fb3,Estes Park Golf Course,"Museums, Historical Sites, and Similar Institutions",Nature Parks and Other Similar Institutions,1480 S Saint Vrain Ave,Estes Park,CO,80517
sg:34c7f905a7c645c79c0d38d26ab9061d,Allenspark Fire Protection District Station 2,"Justice, Public Order, and Safety Activities",Fire Protection,7400 State Highway 7,Estes Park,CO,80517
sg:6bd28bbfc6f54611b20f343f4db8eb2c,Colorado Cottages,Traveler Accommodation,Hotels (except Casino Hotels) and Motels,1241 High Dr,Estes Park,CO,80517
sg:bf3efc6fd6794301b816a364d2d8e1d7,Community For Kids,Child Day Care Services,Child Day Care Services,1505 Brodie Ave,Estes Park,CO,80517
sg:47e259b29c2346aabc730299889ed65e,Mary Jane's,Clothing Stores,Women's Clothing Stores,358 E Elkhorn Ave,Estes Park,CO,80517
sg:8c997c344fe947c69d4bcc0b4243cedd,Cil,Other Leather and Allied Product Manufacturing,Women's Handbag and Purse Manufacturing,600 Aspen Ave,Estes Park,CO,80517
sg:3adf41c2a6954466956a323179d8131c,Estes Valley Recreation District,"Museums, Historical Sites, and Similar Institutions",Nature Parks and Other Similar Institutions,690 Big Thompson Ave,Estes Park,CO,80517
sg:4efc27cbd4fe4b72b1858f1ca6e2d8da,Estes Park Middle School,Elementary and Secondary Schools,Elementary and Secondary Schools,1500 Manford Ave,Estes Park,CO,80517
sg:db83693e2928454aaa63fbd32140f9f3,Bond Park,"Museums, Historical Sites, and Similar Institutions",Nature Parks and Other Similar Institutions,225 E Elkhorn Ave,Estes Park,CO,80517
sg:b6a6ef3230134aa9bff2a28198db04c4,Yogi Bear's Jellystone Park,Traveler Accommodation,Hotels (except Casino Hotels) and Motels,5495 US Highway 36,Estes Park,CO,80517
sg:ee9b359622ca40e9b492160cacb108e2,Nicky's Steakhouse Restaurant,Restaurants and Other Eating Places,Full-Service Restaurants,1350 Fall River Rd,Estes Park,CO,80517
sg:59cfc464febb48e380c08684e34c6ee3,KOA (Kampgrounds of America),RV (Recreational Vehicle) Parks and Recreational Camps,RV (Recreational Vehicle) Parks and Campgrounds,2051 Big Thompson Ave,Estes Park,CO,80517
sg:4f093494617944ad8408a5f60d3e8192,Ascend Resort Collection,Traveler Accommodation,Hotels (except Casino Hotels) and Motels,101 S Saint Vrain Ave,Estes Park,CO,80517
sg:e9ce404caefd45b0a917921757571549,Peak To Peak Lodge,Traveler Accommodation,Hotels (except Casino Hotels) and Motels,760 S Saint Vrain Ave,Estes Park,CO,80517
sg:df60f6d1274a47df97511d45cd35fb14,Chipper's Lanes,Other Amusement and Recreation Industries,Bowling Centers,555 S Saint Vrain Ave,Estes Park,CO,80517
sg:75a13624a1484076b553363839bfe35b,Cousin Pat's Pub & Grill,Restaurants and Other Eating Places,Full-Service Restaurants,451 S Saint Vrain Ave,Estes Park,CO,80517
sg:a75f2dd794684e0885d16ab54758a8bd,The Golden Leaf Inn,Traveler Accommodation,Hotels (except Casino Hotels) and Motels,325 James St,Estes Park,CO,80517
sg:5ceecf22454d45569c34dcce8a9c31e5,Evergreens On Fall River,Traveler Accommodation,Hotels (except Casino Hotels) and Motels,1500 Fish Hatchery Rd,Estes Park,CO,80517
sg:6c70788efaad43968d64d99435cd56f2,MacDonald Book Shop,Book Stores and News Dealers,Book Stores,152 E Elkhorn Ave,Estes Park,CO,80517
sg:c98f4fa2b63d4c44b7cde66ff6b6409d,Everest Mechanical Estes Park,Building Material and Supplies Dealers,Hardware Stores,1201 Graves Ave Ste C,Estes Park,CO,80517
sg:c030fe9b3e984effaddc742c3cb59a90,Rocky Mountain Health Club,Other Amusement and Recreation Industries,Fitness and Recreational Sports Centers,1230 Big Thompson Ave,Estes Park,CO,80517
sg:6c29d6b314244ad8bce405fd921aafe1,Community Center,Other Amusement and Recreation Industries,All Other Amusement and Recreation Industries,Community Center,Estes Park,CO,80517
sg:158b7026fe2c4aa7b59d24dc78197f5d,Country Super Market,Grocery Stores,Supermarkets and Other Grocery (except Convenience) Stores,900 Moraine Ave,Estes Park,CO,80517
sg:c970f995c0be47de85babf31177df302,Hyk,"Sporting Goods, Hobby, and Musical Instrument Stores",Sporting Goods Stores,149 E Elkhorn Ave,Estes Park,CO,80517
sg:4e6cf6bc982147059462c6a72a7c9dda,Estes Park Sugar Shack,Specialty Food Stores,Confectionery and Nut Stores,153 Virginia Dr,Estes Park,CO,80517
sg:85091317f75c4dd294d76962fb862e2d,Glacier Creek Stables,"Office Supplies, Stationery, and Gift Stores","Gift, Novelty, and Souvenir Stores",4000 Bear Lake Rd Sprague Lake Rocky Mountain Nati,Estes Park,CO,80517
sg:5ecf749872ea4099bd579f372d90d0fa,Ravencrest Chalet,"Colleges, Universities, and Professional Schools","Colleges, Universities, and Professional Schools",501 Pole Hill Rd,Estes Park,CO,80517
sg:a4f9a70844fc41bbadf1b63e74bb46e0,Bank of Estes Park,Depository Credit Intermediation,Commercial Banking,255 Park Ln,Estes Park,CO,80517
sg:698e1f3f80474d9196cac0fd399f123f,Loveland Heights Cottages,Traveler Accommodation,Hotels (except Casino Hotels) and Motels,2542 Big Thompson Ave,Estes Park,CO,80517
sg:aa10b88bc08b42b5874b7844bad465c5,Latitude 105,Restaurants and Other Eating Places,Full-Service Restaurants,101 S Saint Vrain Ave,Estes Park,CO,80517
sg:089d30aff3c84a75a3306547b15df4b1,The Baldpate Inn Restaurant,Restaurants and Other Eating Places,Snack and Nonalcoholic Beverage Bars,4900 S Hwy,Estes Park,CO,80517
sg:ff9a6e4e55954aa1bfc127100e1c9360,Romantic RiverSong Bed & Breakfast,Traveler Accommodation,Hotels (except Casino Hotels) and Motels,1766 Lower Broadview Rd,Estes Park,CO,80517
sg:0e3820750c8e406f9797ec2acc2668bc,Bart's Liquor,"Beer, Wine, and Liquor Stores","Beer, Wine, and Liquor Stores",453 E Wonder View Ave Unit 1,Estes Park,CO,80517
sg:f211eb517fa640e1b33d93738f09720d,O'Reilly Auto Parts,"Automotive Parts, Accessories, and Tire Stores",Automotive Parts and Accessories Stores,1181 Graves Ave,Estes Park,CO,80517
sg:99481510d4f14e7281d86185be5a75ba,ConocoPhillips,Gasoline Stations,Gasoline Stations with Convenience Stores,900 Moraine Ave,Estes Park,CO,80517
sg:6c9c1617ccc94f8b8caeed052df1d232,Lazy R Cottages,Traveler Accommodation,Hotels (except Casino Hotels) and Motels,891 Moraine Ave,Estes Park,CO,80517
sg:b2dab71301a047cebde5e054888b8e6e,Estes Park Medical Center,General Medical and Surgical Hospitals,General Medical and Surgical Hospitals,555 Prospect Ave,Estes Park,CO,80517
sg:fd556a5c2310461d9721e9cdc0f52989,Mortgage Solutions Financial Estes Park,Depository Credit Intermediation,Commercial Banking,501 Saint Vrain Ln Unit 101,Estes Park,CO,80517
sg:aa588e9e2f9b4ee7be242ec88b574f24,Historic Park Theatre,Motion Picture and Video Industries,Motion Picture Theaters (except Drive-Ins),130 Moraine Ave,Estes Park,CO,80517
sg:a5a965c16a6a411eae2a57a9fc08e8fe,Cowpoke Corner Corral,"Office Supplies, Stationery, and Gift Stores","Gift, Novelty, and Souvenir Stores",2166 State Highway 66,Estes Park,CO,80517
sg:abda4eb6efb84df5b954994e1fc9fffc,Estes Park Pie Shop & Bakery,Restaurants and Other Eating Places,Full-Service Restaurants,509 Big Thompson Ave,Estes Park,CO,80517
sg:ca13ba642bf042c89b532d69e3e7d641,Big O Tires,"Automotive Parts, Accessories, and Tire Stores",Automotive Parts and Accessories Stores,1633 Raven Ave,Estes Park,CO,80517
sg:d5a74ccfb0d043abbc5772350baf19d2,Mountain Home Cafe,Restaurants and Other Eating Places,Full-Service Restaurants,457 E Wonder View Ave Ste C-1,Estes Park,CO,80517
sg:b804771e1a0d42f0b2b729e8260b8655,Mountain Village at Lake Estes,Traveler Accommodation,Hotels (except Casino Hotels) and Motels,1700 Big Thompson Ave,Estes Park,CO,80517
sg:7005c15afc484abb8e3726d11ef1e019,Estes Park Brewery,Beverage Manufacturing,Breweries,470 Prospect Village Dr,Estes Park,CO,80517
sg:58b88780b20b42389bb46cd1b9fde9af,For Bare Feet,Clothing Stores,Women's Clothing Stores,126 E Elkhorn Ave,Estes Park,CO,80517
sg:bef517984e6940499d45afa4e9e1f66f,Enos Mills Cabin Museum,"Museums, Historical Sites, and Similar Institutions",Museums,6760 Colorado 7,Estes Park,CO,80517
sg:c1469019692d4a31b74e7dcada82d0cd,CABINtique,Used Merchandise Stores,Used Merchandise Stores,521 S Saint Vrain Ave Unit A,Estes Park,CO,80517
sg:97fb6356a5a64ca69306c7d0683cfa2c,Sinclair Oil,Gasoline Stations,Gasoline Stations with Convenience Stores,860 Moraine Ave,Estes Park,CO,80517
sg:66a4964b96274d47883562c50c5a1ef2,Estes Park Options School,Elementary and Secondary Schools,Elementary and Secondary Schools,1575 S Saint Vrain Ave,Estes Park,CO,80517
sg:5477d08dae68482191ed64d29aacefed,Rocky Mountain Chocolate Factory,Specialty Food Stores,Confectionery and Nut Stores,517 Big Thompson Ave # 3544,Estes Park,CO,80517
sg:cbd8965beeb94758a97d6936fac28f61,Estes Park Campground at Mary's Lake,RV (Recreational Vehicle) Parks and Recreational Camps,RV (Recreational Vehicle) Parks and Campgrounds,2120 Marys Lake Rd,Estes Park,CO,80517
sg:58feae3a560149d6b8b8d6894f5b5971,Estes Park Memorial Observatory,Health and Personal Care Stores,Optical Goods Stores,1600 Manford Ave,Estes Park,CO,80517
sg:816d8ce303cc4ab59d95928a925b0513,Estes Park CPA,"Accounting, Tax Preparation, Bookkeeping, and Payroll Services",Tax Preparation Services,1751 N Lake Ave Unit 103,Estes Park,CO,80517
sg:caa39b3b6c6e436eb9e52b77cf27ddc3,Estes True Value Radio Shack,Building Material and Supplies Dealers,Hardware Stores,461 E Wonder View Ave,Estes Park,CO,80517
sg:e6dc071475b74667afe8ad7e320f23b0,McGregor Mountain Lodge,Traveler Accommodation,Hotels (except Casino Hotels) and Motels,2815 Fall River Rd,Estes Park,CO,80517
sg:0f72b59008f246e5b0e8c90b0339fc7a,Murphy's River Lodge,Traveler Accommodation,Hotels (except Casino Hotels) and Motels,481 W Elkhorn Ave,Estes Park,CO,80517
sg:b4486830ed7048938e9a5f5e8128e9be,Shell Oil,Gasoline Stations,Gasoline Stations with Convenience Stores,561 Big Thompson Ave,Estes Park,CO,80517
sg:cace827c1af74c168b09fceee12bf75a,True Value Hardware,Building Material and Supplies Dealers,Hardware Stores,461 E Wonder View Ave,Estes Park,CO,80517
sg:8852a372fdde4f31aaeef5569ee91c52,Sleeping Dragon,Consumer Goods Rental,Video Tape and Disc Rental,830 Larkspur Rd,Estes Park,CO,80517
sg:39e58d72333d42578d9b28dfa1c58a76,Rustic Mountain Charm,"Office Supplies, Stationery, and Gift Stores","Gift, Novelty, and Souvenir Stores",135 E Elkhorn Ave,Estes Park,CO,80517
sg:9a9d882a0c1846abb11bf5ae6c434443,Oppa Asian Bistro,Restaurants and Other Eating Places,Full-Service Restaurants,183 Riverside Dr,Estes Park,CO,80517
sg:c0aa7de9550546299c969e13457bd194,The Weathervane of Estes Park,"Office Supplies, Stationery, and Gift Stores","Gift, Novelty, and Souvenir Stores",145 E Elkhorn Ave,Estes Park,CO,80517
sg:15d8d5802f714953af7a97424ee8f20e,Rosemary The Celtic Lady,Offices of Physicians,Offices of Physicians (except Mental Health Specialists),88 Pinyon Trl,Estes Park,CO,80517
sg:c17edee3ca52438fbe759be8a6524556,Historic Crag's Lodge,Traveler Accommodation,Hotels (except Casino Hotels) and Motels,300 Riverside Dr,Estes Park,CO,80517
sg:64d6c7089e2240349b131a0dec64a340,Apex Ex,"Museums, Historical Sites, and Similar Institutions",Nature Parks and Other Similar Institutions,1160 Woodstock Dr,Estes Park,CO,80517
sg:569b23463c3e4b3a88f17a89b23f2633,Mountain Blown Glass,Other Miscellaneous Store Retailers,Art Dealers,101 W Elkhorn Ave,Estes Park,CO,80517
sg:30fbce21e327419e95bf28a9cfea450a,Pepper Palace,Specialty Food Stores,All Other Specialty Food Stores,157 W Elkhorn Ave #17 Unit 13,Estes Park,CO,80517
sg:7bf9d48df93d44209a74b723f97220c2,Piano and Violin Studio,"Sporting Goods, Hobby, and Musical Instrument Stores",Musical Instrument and Supplies Stores,107 Meadowview Dr,Estes Park,CO,80517
sg:023fa7ad1efe4707a41dfb23897cd7bd,Estes Park Golf Course,Other Amusement and Recreation Industries,Golf Courses and Country Clubs,1480 Golf Course Rd,Estes Park,CO,80517
sg:28f621862b5e45fda51959cf6643e27e,Mocha Angelo's,Restaurants and Other Eating Places,Snack and Nonalcoholic Beverage Bars,133 W Elkhorn Ave,Estes Park,CO,80517
sg:2909bd1f1e984772b7d72bf2aaf3588b,Aspen Winds,Traveler Accommodation,Hotels (except Casino Hotels) and Motels,1051 Fall River Ct,Estes Park,CO,80517
sg:4da3cf8139334f1ab95ed461fcea6106,Wapiti Colorado Pub,Restaurants and Other Eating Places,Full-Service Restaurants,247 W Elkhorn Ave,Estes Park,CO,80517
sg:80b63faedfa74ed6949439e35d918883,Shell Oil,Gasoline Stations,Gasoline Stations with Convenience Stores,534 S Saint Vrain Ave,Estes Park,CO,80517
sg:d2936778d7ed4679b378ee07c4e687dc,Good Samaritan Society,Home Health Care Services,Home Health Care Services,1901 Ptarmigan Trl,Estes Park,CO,80517
sg:0e91a4595c724641aed21a7464660768,Ponderosa Lodge,Traveler Accommodation,Hotels (except Casino Hotels) and Motels,1820 Fall River Rd,Estes Park,CO,80517
sg:e091ae457b6c4627b1232ac5a92178c1,Boulder Brook,Traveler Accommodation,Hotels (except Casino Hotels) and Motels,1900 Fall River Rd,Estes Park,CO,80517
sg:920907e1326245cb8b881fe03f4b1056,Timberline Medical Urgent Care,Outpatient Care Centers,Freestanding Ambulatory Surgical and Emergency Centers,131 Stanley Ave Ste 202,Estes Park,CO,80517
sg:709716c639d84df9a73406dc8e74e05c,Craftsmen In Leather,Other Leather and Allied Product Manufacturing,Women's Handbag and Purse Manufacturing,135 W Elkhorn Ave,Estes Park,CO,80517
sg:9c5f8223e8394ddd80b73c253e46d158,Mutt Hutt,Other Miscellaneous Store Retailers,Pet and Pet Supplies Stores,1776 Avalon Dr,Estes Park,CO,80517
sg:f5c86739c5de454e852b3680caf41543,Harmony Foundation,Offices of Other Health Practitioners,Offices of Mental Health Practitioners (except Physicians),1600 Fish Hatchery Rd,Estes Park,CO,80517
sg:ca85def1a57040b0a3a0eda35b7b01f6,La Mexicana Carniceria y Mini Market,Gasoline Stations,Gasoline Stations with Convenience Stores,841 Dunraven St,Estes Park,CO,80517
sg:ea839bba60744b80846bd02756393731,U S Bureau of Reclamation Estes Plant,"Electric Power Generation, Transmission and Distribution",Hydroelectric Power Generation,N/a,Estes Park,CO,80517
sg:4abf2ec3ad464f1481f9a474f112cb6f,Outdoor World,"Sporting Goods, Hobby, and Musical Instrument Stores",Sporting Goods Stores,156 E Elkhorn Ave,Estes Park,CO,80517
sg:9dba7ddd76a748cfb99c6bf265c63c4d,Marys Lake,"Electric Power Generation, Transmission and Distribution",Fossil Fuel Electric Power Generation,N/a,Estes Park,CO,80517
sg:f22e242875184f1286cb0f85f28751b5,Active at Altitude,Other Amusement and Recreation Industries,Fitness and Recreational Sports Centers,114 Timber Ln,Estes Park,CO,80517
sg:aca991c07b0a4d799750579607603e99,Ridgeline Paint,Automotive Repair and Maintenance,"Automotive Body, Paint, and Interior Repair and Maintenance",1751 N Lake Ave Unit 105,Estes Park,CO,80517
sg:11103c8810314c31b8fff063b271b412,The UPS Store,Couriers and Express Delivery Services,Couriers and Express Delivery Services,453 E Wonder View Ave,Estes Park,CO,80517
sg:cc58d605a9c94018a7a291c16f66c26d,Our Lady of the Mountains Catholic Church,Religious Organizations,Religious Organizations,920 Big Thompson Ave,Estes Park,CO,80517
sg:eb5e9df139de433498c85ac75ca98115,High Peak Camp,Other Amusement and Recreation Industries,Fitness and Recreational Sports Centers,111 Salvation Ln,Estes Park,CO,80517
sg:625f9adcee80448ea8a6bd2ee9f2f8d3,Big Horn Restaurant,Restaurants and Other Eating Places,Full-Service Restaurants,401 W Elkhorn Ave,Estes Park,CO,80517
sg:afed712c0b424e4c90a38bdf7b9fc5a8,Alpine Automotive,Automotive Repair and Maintenance,General Automotive Repair,508 Pine River Ln,Estes Park,CO,80517
sg:e0ec973298354ccf823a3ab62d888cbd,Mountain Imports Parts & Repair,Automotive Repair and Maintenance,General Automotive Repair,881 Dunraven St,Estes Park,CO,80517
sg:33e44740181c4ee89cfb5269042924c6,Buckles of Estes,Clothing Stores,Women's Clothing Stores,160 W Elkhorn Ave,Estes Park,CO,80517
sg:35f7a4b71cc1498187b0bef69cff4bf6,Local's Grill,Restaurants and Other Eating Places,Full-Service Restaurants,153 E Elkhorn Ave,Estes Park,CO,80517
sg:a26e4bd0a07e4b58bdf83b501b89e8ce,Rocky Mountain Movement and Massage Estes Park,Personal Care Services,Other Personal Care Services,166 S St Vrain Estes Park Co 50157,Estes Park,CO,80517
sg:e181517addd943688c6bb7642d2d6436,Vagabond,Restaurants and Other Eating Places,Snack and Nonalcoholic Beverage Bars,231 W Riverside Dr,Estes Park,CO,80517
sg:fc0dd6867e734e1987c0cb1b3f8866a2,Sombrero Ranch,"Office Supplies, Stationery, and Gift Stores","Gift, Novelty, and Souvenir Stores",1895 Big Thompson Ave,Estes Park,CO,80517
sg:ad5925943881485c8eb4ea9e7309e3cf,Quality Inn,Traveler Accommodation,Hotels (except Casino Hotels) and Motels,1450 Big Thompson Ave,Estes Park,CO,80517
sg:d8393946bf204d06bf10233f52bd3268,The Warming House,"Sporting Goods, Hobby, and Musical Instrument Stores",Sporting Goods Stores,790 Moraine Ave,Estes Park,CO,80517
sg:f5e8e314e8df451c9e2a8cc7b5b3bde7,Mountainview Vacation Rentals,Traveler Accommodation,Hotels (except Casino Hotels) and Motels,1004 S Saint Vrain Ave,Estes Park,CO,80517
sg:b3a034bd2a264047b6031346ff63f151,Antonios Real New York Pizza,Restaurants and Other Eating Places,Full-Service Restaurants,1560 Big Thompson Ave,Estes Park,CO,80517
sg:9aaa17b2898e42b98c5c2da8192de6b8,Cheley Colorado Camps,Other Amusement and Recreation Industries,Fitness and Recreational Sports Centers,3960 Fish Creek Rd,Estes Park,CO,80517
sg:4ae523bb437945d88c8ae409fed4a6d1,Mrs Walsh's Garden,"Museums, Historical Sites, and Similar Institutions",Nature Parks and Other Similar Institutions,Mrs Walshs Garden,Estes Park,CO,80517
sg:313f3f8bfa204d5bbe2940db2b3dd4db,LPM Automotive,Automotive Repair and Maintenance,"Automotive Body, Paint, and Interior Repair and Maintenance",931 Juniper Ln,Estes Park,CO,80517
sg:50d9b0f6122a4ec6b50c0ec8a2f96652,Emerald Lake Trail,"Museums, Historical Sites, and Similar Institutions",Nature Parks and Other Similar Institutions,Bear Lake Trailhead Bear Lake Road,Estes Park,CO,80517
sg:b656adb60e5e4746bef2e8fcd2bc6c74,Estes Lake,Miscellaneous Durable Goods Merchant Wholesalers,Sporting and Recreational Goods and Supplies Merchant Wholesalers,1770 Big Thompson Ave,Estes Park,CO,80517
sg:2d92881036c94c5a980215f2ecb9f3be,Danielle D Arnold Agency American Family Insurance,"Agencies, Brokerages, and Other Insurance Related Activities",Insurance Agencies and Brokerages,601 Community Dr,Estes Park,CO,80517
sg:167196a1cd5d41848f2bb621fc503c70,Primerica,Other Financial Investment Activities,Investment Advice,433 W Elkhorn Ave Unit A,Estes Park,CO,80517
sg:cb6fd0f2c0914619bad60b7e5522597a,Salud Family Health Centers,Offices of Dentists,Offices of Dentists,1950 Redtail Hawk Dr,Estes Park,CO,80517
sg:6147c2813af64739a3a3044561667d94,The Haber Motel of Estes Park,Traveler Accommodation,Hotels (except Casino Hotels) and Motels,397 E Elkhorn Ave,Estes Park,CO,80517
sg:218855d6c32d46698abb2a205efe9632,Twin Owls Steakhouse,Traveler Accommodation,Hotels (except Casino Hotels) and Motels,800 Macgregor Ave,Estes Park,CO,80517
sg:a5f0afb0a893464fa44bb741f2ca84c0,Glacier Basin Campground,RV (Recreational Vehicle) Parks and Recreational Camps,RV (Recreational Vehicle) Parks and Campgrounds,1000 US Highway 36,Estes Park,CO,80517
sg:af76e1cd94ca497eb625175f99599173,Stride Rite,Shoe Stores,Shoe Stores,135 Moraine Ave,Estes Park,CO,80517
sg:3f6a8c8e7e0c4cc08361cbbb9d651872,Village Thrift Shop,Used Merchandise Stores,Used Merchandise Stores,1138 Manford Ave,Estes Park,CO,80517
sg:79acea71d941430594fea2302d2892da,Weist Park,"Museums, Historical Sites, and Similar Institutions",Nature Parks and Other Similar Institutions,Weist Park,Estes Park,CO,80517
sg:749edeb5a79344c1a3d9ed4ce58aaf52,The Inn On Fall River,Traveler Accommodation,Hotels (except Casino Hotels) and Motels,1660 Fall River Rd,Estes Park,CO,80517
sg:b42767290f1e47e1b1a2c4b42c4e68cf,United States Postal Service (USPS),Postal Service,Postal Service,215 W Riverside Dr,Estes Park,CO,80517
sg:770b90de45ec4d4e9214fcb9dbf609f1,Estes Park Massage,Personal Care Services,Other Personal Care Services,517 Big Thompson Ave,Estes Park,CO,80517
sg:088f76a5cff74f71a28a72d4124110b8,Wildwood Inn,Traveler Accommodation,Hotels (except Casino Hotels) and Motels,2801 Fall River Rd,Estes Park,CO,80517
sg:c72e615b69554b11bbc4a08ce2848290,Kokopelli Inn,Traveler Accommodation,Hotels (except Casino Hotels) and Motels,6777 US Highway 36,Estes Park,CO,80517
sg:a60ab05e916d4c2484b4227b8adce490,United Methodist Church of Estes Park,Religious Organizations,Religious Organizations,1509 Fish Hatchery Rd,Estes Park,CO,80517
sg:ae8baac6aaac450d8debe4f44a06a371,D & S Auto Repair,Automotive Repair and Maintenance,General Automotive Repair,930 Juniper Ln,Estes Park,CO,80517
sg:c584801d36104342b5cdb010e7717255,Poppy's Pizza & Grill,Restaurants and Other Eating Places,Full-Service Restaurants,342 E Elkhorn Ave,Estes Park,CO,80517
sg:60221dd3ce3343c4aea823a106be5cfb,Ziggi's Coffee,Restaurants and Other Eating Places,Snack and Nonalcoholic Beverage Bars,519 Saint Vrain Ln,Estes Park,CO,80517
sg:aa22e32823884efca060d98432ce1a17,Rock Inn Mountain Tavern,Motion Picture and Video Industries,Motion Picture Theaters (except Drive-Ins),1675 State Highway 66,Estes Park,CO,80517
sg:3ee2daf792e8420e90873c3ef76417c9,Illusions of the Passed,Health and Personal Care Stores,Optical Goods Stores,333 E Wonder View Ave,Estes Park,CO,80517
sg:290a0a736b9e4740b3c9dabbf157ab7c,Daluz Cigar Bar,Other Miscellaneous Store Retailers,Tobacco Stores,Wonderview Ave,Estes Park,CO,80517
sg:6be43227621c46ad98d069a6be017c54,Seasoned An American Bistro,Restaurants and Other Eating Places,Full-Service Restaurants,205 Park Ln,Estes Park,CO,80517
sg:3c82f40efa464b36b843777ad11a1d06,Simply Christmas,"Office Supplies, Stationery, and Gift Stores","Gift, Novelty, and Souvenir Stores",129 W Elkhorn,Estes Park,CO,80517
sg:72b3ae9ae8dc4da0845ff9ba97a2a9ec,Mile High Coffee House,Restaurants and Other Eating Places,Snack and Nonalcoholic Beverage Bars,356 E Elkhorn Ave Unit 2,Estes Park,CO,80517
sg:ab850e4f9c9a400ba51a3128e9a38e47,Mount Calvary Lutheran Church,Religious Organizations,Religious Organizations,950 N Saint Vrain Ave,Estes Park,CO,80517
sg:c49c03638a95470a94fd0856519c3c68,Starbucks,Restaurants and Other Eating Places,Snack and Nonalcoholic Beverage Bars,537 Big Thompson Ave,Estes Park,CO,80517
sg:0661bbb81dcd437a95fb880b3a7ee6ef,Mountaintop Physical Therapy,Offices of Other Health Practitioners,"Offices of Physical, Occupational and Speech Therapists, and Audiologists",1632A Big Thompson Ave,Estes Park,CO,80517
sg:5cd370c890b045229d5093b1a284e5cb,The Maxwell Inn,Traveler Accommodation,Hotels (except Casino Hotels) and Motels,553 W Elkhorn Ave,Estes Park,CO,80517
sg:5f0533a892e944b8a6e0c3e0cf3dc656,Village Pizza,Restaurants and Other Eating Places,Full-Service Restaurants,543 Big Thompson Ave,Estes Park,CO,80517
sg:d8d38eefa6d34ace92947978618266bf,Leffler's Estes Park Vitamin Shoppe,Health and Personal Care Stores,Food (Health) Supplement Stores,164 S Saint Vrain Ave,Estes Park,CO,80517
sg:40817b2c79e24a65a74e60486e19ef16,Cole Norton Media,Printing and Related Support Activities,Commercial Screen Printing,1891 Redtail Hawk Dr,Estes Park,CO,80517
sg:a3a235447c684310bacc2da3f284b71d,Notchtop Bakery & Cafe,Restaurants and Other Eating Places,Snack and Nonalcoholic Beverage Bars,459 E Wonder View Ave,Estes Park,CO,80517
sg:3bf34b971ef64099ae801dbfd2fa98ad,Estes Park Chiropractic,Offices of Other Health Practitioners,Offices of Chiropractors,541 Big Thompson Ave Unit F,Estes Park,CO,80517
sg:67a9254d43ce40958f936593b6e1d35c,Moosely T's & Sports,Shoe Stores,Shoe Stores,122 E Elkhorn Ave,Estes Park,CO,80517
sg:b51888722e6647428fb0057e44e49569,Affinity Massage and Wellness Center,Personal Care Services,Other Personal Care Services,312 E Elkhorn Ave,Estes Park,CO,80517
sg:bec81686aa59482285ff951e2f0cf646,Snyders Appliance,Building Material and Supplies Dealers,Hardware Stores,1751 N Lake Ave,Estes Park,CO,80517
sg:b4b529b7327d4ddfbbc8b34b323c91d9,Estes Park Yoga,Other Amusement and Recreation Industries,Fitness and Recreational Sports Centers,145 E Elkhorn Ave Ste 200,Estes Park,CO,80517
sg:2f26efc5c3ff4db987b0ed6e8b580c2a,Memories Old Time Portraits,"Other Professional, Scientific, and Technical Services","Photography Studios, Portrait",132 W Elkhorn Ave,Estes Park,CO,80517
sg:50729520c4ae45bfb9e932bd176c5e53,Estes Valley Community Center,Building Material and Supplies Dealers,Paint and Wallpaper Stores,660 Community Dr,Estes Park,CO,80517
sg:7215f35689ff403eb91362dd7fa393fc,Alpine Visitors Center,"Office Supplies, Stationery, and Gift Stores","Gift, Novelty, and Souvenir Stores",Rocky Mountain National Park Trail Ridge Rd & Old,Estes Park,CO,80517
sg:7b504cd0cbe3492f8a5db79c73c91672,Farmers Insurance Group,"Agencies, Brokerages, and Other Insurance Related Activities",Insurance Agencies and Brokerages,1751 N Lake Ave Unit 107,Estes Park,CO,80517
sg:a88456d400aa40428e8657c7e824951c,Smith's Ranahan Ranch,"Office Supplies, Stationery, and Gift Stores","Gift, Novelty, and Souvenir Stores",600 W Elkhorn Ave Unit The,Estes Park,CO,80517
sg:bd6ce67622534d83b1633bb0760ef550,Village Laundry,Drycleaning and Laundry Services,Drycleaning and Laundry Services (except Coin-Operated),174 S Saint Vrain Ave,Estes Park,CO,80517
sg:abc1d19d9f324c9cb23d82e2b591a4cf,Estes Park High School,Elementary and Secondary Schools,Elementary and Secondary Schools,1600 Manford Ave,Estes Park,CO,80517
sg:e7790d1505724d3daecb1f882f0fe4fd,Lifelong Learning Of Estes Valley,Child Day Care Services,Child Day Care Services,541 Lone Pine Dr,Estes Park,CO,80517
sg:16cd7d2a9e154999bbc4f3d0d086183f,Discovery Lodge,Traveler Accommodation,Hotels (except Casino Hotels) and Motels,800 Big Thompson Ave,Estes Park,CO,80517
sg:b8947f47924845a0ac75e0c9be0bab8d,Park Place Preschool,Child Day Care Services,Child Day Care Services,1505 Brodie Ave,Estes Park,CO,80517
sg:f21495c854b243dc9b90f9011ab602f3,Chelito's Mexican Restaurant,Restaurants and Other Eating Places,Full-Service Restaurants,145 E Elkhorn Ave,Estes Park,CO,80517
sg:1aea77f489fb4bd5a762a13b523447c4,Pike William R DDS,Offices of Dentists,Offices of Dentists,600 S Saint Vrain Ave Unit 3,Estes Park,CO,80517
sg:9a297ebc36c145aeb51b23776be20997,Mike Richardson Estes Park Real Estate,Offices of Real Estate Agents and Brokers,Offices of Real Estate Agents and Brokers,255 Park Ln Ste 203,Estes Park,CO,80517
sg:3e30a9dcfe57440fa8856e0c3300c3a3,Safeway Fuel Station,Gasoline Stations,Gasoline Stations with Convenience Stores,621 Big Thompson Ave,Estes Park,CO,80517
sg:c73af9e6e7274c8b9ace04a05793833d,Integrative Balance Psychotherapy and Wellness Coaching,Offices of Other Health Practitioners,Offices of Mental Health Practitioners (except Physicians),1200 Graves Ave Ste 207,Estes Park,CO,80517
sg:a289dfcc7a4d4ceb911bd2a13fe7c642,Senior Citizens Center of Estes Park,"Museums, Historical Sites, and Similar Institutions",Nature Parks and Other Similar Institutions,220 4th St,Estes Park,CO,80517
sg:dd56fdb47af34de5b547462f14387e43,Kirk's Mountain Adventures,"Sporting Goods, Hobby, and Musical Instrument Stores",Sporting Goods Stores,230 E Elkhorn Ave,Estes Park,CO,80517
sg:531290ed0ab448f291e26eefab03eac8,Tesla Supercharger Estes Park,Gasoline Stations,Gasoline Stations with Convenience Stores,333 E Wonder View Ave,Estes Park,CO,80517
sg:5e29a42900de4fb8bf07a3cadefc1bfa,United Mthdst Church,Religious Organizations,Religious Organizations,1509 Fish Hatchery Rd,Estes Park,CO,80517
sg:ff7040f067754b8a95b184aaaf6f39b4,Twin Sisters Trail,"Museums, Historical Sites, and Similar Institutions",Nature Parks and Other Similar Institutions,S Estes Park Hwy 7,Estes Park,CO,80517
sg:1407cc19509b43e1ac43b560bb03352e,Caramel Crisp Shop,Specialty Food Stores,Confectionery and Nut Stores,108 E Elkhorn Ave,Estes Park,CO,80517
sg:add1f8fa170f4b7989dff4c04e03f0e8,YMCA,Individual and Family Services,Other Individual and Family Services,2515 Tunnel Rd,Estes Park,CO,80511
sg:4f7e00b4838e46a291b75d769ea6730a,Spruce Lake RV Park,"","",1050 Marys Lake Rd,Estes Park,CO,80517
sg:f3bd33e37aa5457c8346efe23f433c08,Niche Design House,Building Material and Supplies Dealers,Paint and Wallpaper Stores,509 Big Thompson Ave Unit 2,Estes Park,CO,80517
sg:86c1e3a5280649b4ab83edf76a519190,Colorado Hats,Clothing Stores,Other Clothing Stores,138 Moraine Ave,Estes Park,CO,80517
sg:c16b437c6d6d45f3869cc9ab6711eb1b,Estes Park Museum,"Museums, Historical Sites, and Similar Institutions",Museums,200 4th St,Estes Park,CO,80517
sg:b032658de2014b35a85e34772da497a3,Town of Estes Park,"General Merchandise Stores, including Warehouse Clubs and Supercenters",All Other General Merchandise Stores,170 Macgregor Ave,Estes Park,CO,80517
sg:d00ceb82e2434b94ba24517a745dba91,Acton Industries,Other Leather and Allied Product Manufacturing,Women's Handbag and Purse Manufacturing,2311 Pine Meadow Dr,Estes Park,CO,80517
sg:f1ea1ac0e06047019da913ba2b455605,Christian Science Services,Religious Organizations,Religious Organizations,951 W Elkhorn Ave,Estes Park,CO,80517
sg:30342c07b4c74f5cbb1f5a97e3e1b5ff,Stanley Village Shopping Center,Lessors of Real Estate,Malls,459 E Wonder View Ave,Estes Park,CO,80517
sg:5e47d573d61d4402922770748a77e87e,Estes Park Baptist Church,Religious Organizations,Religious Organizations,2200 Mall Rd,Estes Park,CO,80517
sg:5a95eb1e7e7546d784da873caaacbff4,The Pool,"Museums, Historical Sites, and Similar Institutions",Nature Parks and Other Similar Institutions,Rocky Mountain National Park,Estes Park,CO,80517
sg:136afe06626d4b80bb7a018d6ad0c03b,Backbone Adventure Rentals,"Sporting Goods, Hobby, and Musical Instrument Stores",Sporting Goods Stores,875 Moraine Ave,Estes Park,CO,80517
sg:bf5fda0ad0c6441bacfcf974192488dc,NAPA Auto Parts,"Automotive Parts, Accessories, and Tire Stores",Automotive Parts and Accessories Stores,351 S Saint Vrain Ave,Estes Park,CO,80517
sg:3ddf01ce6e954c638ced0b18fbbf5c1e,Colorado Mountain School,Restaurants and Other Eating Places,Full-Service Restaurants,341 Moraine Ave,Estes Park,CO,80517
sg:8bd2da4386224a05babeb91c2e95acb7,Farmers Insurance Group,"Agencies, Brokerages, and Other Insurance Related Activities",Insurance Agencies and Brokerages,1751 N Lake Ave Unit 108,Estes Park,CO,80517
sg:e5c627d241644c87a0cc932397e55656,Thai Kitchen,Restaurants and Other Eating Places,Full-Service Restaurants,401 S Saint Vrain Ave,Estes Park,CO,80517
sg:77fd1488fe534031a01bcbba02203a1d,Orange Julius,Restaurants and Other Eating Places,Snack and Nonalcoholic Beverage Bars,218 E Elkhorn Ave,Estes Park,CO,80517
sg:0bedc9db49034d7da876232fae649db7,Misty Mountain Lodge,Traveler Accommodation,Hotels (except Casino Hotels) and Motels,232 E Riverside Dr,Estes Park,CO,80517
sg:28ecf2cbf0b34197a1f7aaa04496ca9a,Cost Cutters,Personal Care Services,Beauty Salons,459 E Wonder View Ave,Estes Park,CO,80517
sg:ee056dc28c55424ab84fe2dc803377d2,Sgt Peppers Music and Video,Consumer Goods Rental,Video Tape and Disc Rental,160 E Elkhorn Ave,Estes Park,CO,80517
sg:f26f6d31a2734494be8f78021b5b1237,Fall River Antiques and Jewelry,Used Merchandise Stores,Used Merchandise Stores,356 E Elkhorn Ave,Estes Park,CO,80517
sg:81cb53568ace4dae882368145c2eefd0,Backbone Adventures,Motor Vehicle and Motor Vehicle Parts and Supplies Merchant Wholesalers,Automobile and Other Motor Vehicle Merchant Wholesalers,1851 N Lake Ave,Estes Park,CO,80517
sg:d4246ccb0b074e4aa26a148a497b2abc,River Rock Cottages,Traveler Accommodation,Hotels (except Casino Hotels) and Motels,311 Virginia Dr,Estes Park,CO,80517
sg:fa3d0e9a39004ace9caff55e77e0e5f0,Baldwin Park,"Museums, Historical Sites, and Similar Institutions",Nature Parks and Other Similar Institutions,240 W Riverside Dr,Estes Park,CO,80517
sg:71b8256e811649949b1ed0ef97947e23,Manor RV Park,"Sporting Goods, Hobby, and Musical Instrument Stores",Sporting Goods Stores,815 Riverside Dr,Estes Park,CO,80517
sg:ca6ad46070c845e1ba1e9a111cf592e1,Elkins Distilling Co,Restaurants and Other Eating Places,Snack and Nonalcoholic Beverage Bars,1825 N Lake Ave,Estes Park,CO,80517
sg:b3730bee71194e7cb3f8cd0611d24bb9,Snowy Peaks Winery,Beverage Manufacturing,Wineries,292 Moraine Ave,Estes Park,CO,80517
sg:6f6891e5ea0d4ab2890dc6fc2e5f93e7,Ed's Cantina & Grill,Restaurants and Other Eating Places,Full-Service Restaurants,390 E Elkhorn Ave,Estes Park,CO,80517
sg:cb4e4d240bb34419901699ce3d024b31,Eagle Rock School,Elementary and Secondary Schools,Elementary and Secondary Schools,2750 Notaiah Rd,Estes Park,CO,80517
sg:8aa5965ac2b64618a176239a361f5f68,Peppers Mexican Grill,Restaurants and Other Eating Places,Full-Service Restaurants,401 E Elkhorn Ave,Estes Park,CO,80517
sg:7d051402dcdb4ac08660b2112b8dd70d,Brownfield's,"Sporting Goods, Hobby, and Musical Instrument Stores",Sporting Goods Stores,350 E Elkhorn Ave,Estes Park,CO,80517
sg:e580f9e63df445e4b7cbb759e226d71d,Edward Jones,Other Financial Investment Activities,Miscellaneous Financial Investment Activities,1186 Graves Ave Unit C,Estes Park,CO,80517
sg:2bf3d5e6f188465db40f35dd305a3bfa,Estes Park K 5 School,Elementary and Secondary Schools,Elementary and Secondary Schools,1505 Brodie Ave,Estes Park,CO,80517
sg:29391c0198394b089dba891fde8cb554,St Bartholomew's Episcopal Church,Religious Organizations,Religious Organizations,880 Macgregor Ave,Estes Park,CO,80517
sg:9f6dbc3887cf46099788fb0904fff8cb,Twin Owls Motor Lodge,Traveler Accommodation,Hotels (except Casino Hotels) and Motels,700 N Saint Vrain Ave,Estes Park,CO,80517
sg:ecc41d4e0c89479182717c7f795b7a62,Classic Hair Design,Personal Care Services,Beauty Salons,178 S Saint Vrain Ave,Estes Park,CO,80517
sg:147a31af320c41d4883f807ed25bec0e,Fawn Valley Inn & Chalets,Traveler Accommodation,Hotels (except Casino Hotels) and Motels,2760 Fall River Rd,Estes Park,CO,80517
sg:2a2462f60aa7448b875abd5db33d3c0e,Dollar General,"General Merchandise Stores, including Warehouse Clubs and Supercenters",All Other General Merchandise Stores,451 Stanley Ave,Estes Park,CO,80517
sg:dfd3743eb64c49df8981602585674577,The Salvation Army,Used Merchandise Stores,Used Merchandise Stores,111 Salvation Ln,Estes Park,CO,80517
sg:604b4b966fc1426b86dd6f592875f3f9,Shakes Alive,Restaurants and Other Eating Places,Snack and Nonalcoholic Beverage Bars,513 Big Thompson Ave,Estes Park,CO,80517
sg:0961df8004e14423a215ea82e8c6d44e,Estes Lake Park,"Museums, Historical Sites, and Similar Institutions",Nature Parks and Other Similar Institutions,1399 N St Vrain Ave,Estes Park,CO,80517
sg:3bee2f6490f6470b8840c084603e59e4,Gregg H Coffman PC,"Accounting, Tax Preparation, Bookkeeping, and Payroll Services",Tax Preparation Services,501 Saint Vrain Ln Unit 200,Estes Park,CO,80517
sg:ea68108dc9db4f7089b585c4edc0a0a1,Munchin House,Restaurants and Other Eating Places,Snack and Nonalcoholic Beverage Bars,130 E Elkhorn Ave,Estes Park,CO,80517
sg:e4004c422a1047cfb3a5d123961afd58,Marry Me In Colorado,Florists,Florists,517 Big Thompson Ave Unit 170,Estes Park,CO,80517
sg:0a5d160c245540b1bd10d33cdcf899f5,Linda's Pet Care Services,Other Personal Services,Pet Care (except Veterinary) Services,950 Comanche St Unit C,Estes Park,CO,80517
sg:51c18f2b801c41c48ea1bb50b6450c20,Glacier Lodge,Traveler Accommodation,Hotels (except Casino Hotels) and Motels,2166 State Highway 66,Estes Park,CO,80517
sg:25a7dfa84660409ca8181e8d45be91f8,The Landing at Estes Park,"","",1774 Co 66,Estes Park,CO,80517
sg:579ba7e3ed9a4c48847d9d466b3d56dd,Water Wheel Gift Corner,"Office Supplies, Stationery, and Gift Stores","Gift, Novelty, and Souvenir Stores",249 W Elkhorn Ave,Estes Park,CO,80517
sg:6845fdc144654df08e88a625c94bff22,Park Theatre Cafe,Restaurants and Other Eating Places,Full-Service Restaurants,132 Moraine Ave,Estes Park,CO,80517
sg:24dea5eee2a04aa68ccb6236c74a179d,Rams Horn Village Resort,Traveler Accommodation,Hotels (except Casino Hotels) and Motels,1565 Colorado Highway 66,Estes Park,CO,80517
sg:16b85450cf3042aabd823dc0abc0b7a1,Subway,Restaurants and Other Eating Places,Limited-Service Restaurants,517 Big Thompson Ave Unit 110,Estes Park,CO,80517
sg:8170a88a17d24d1fbb292f1e20a6f77b,Community Church of the Rockies,Religious Organizations,Religious Organizations,1700 Brodie Ave,Estes Park,CO,80517
sg:d8098fc59f8343f08df60bda6b3becef,Inkwell & Brew,Restaurants and Other Eating Places,Snack and Nonalcoholic Beverage Bars,150 E Elkhorn Ave,Estes Park,CO,80517
sg:82a94d9be9a345ee9676c43e5ca1e7c5,Ace Hardware,Building Material and Supplies Dealers,Hardware Stores,561 Lone Pine Dr,Estes Park,CO,80517
sg:8cada0cd4f92410ea2ed6c9a439ed32f,Trail Ridge Coffee Bar,Restaurants and Other Eating Places,Full-Service Restaurants,946 Moraine Avenue,Estes Park,CO,80517
sg:f936be0704a84073a03a774ec7a15eca,Fresh Burger Stop,Restaurants and Other Eating Places,Full-Service Restaurants,860 Moraine Ave,Estes Park,CO,80517
sg:13a64e8d52724ec7a710c3a4d63b435f,Wine,"Beer, Wine, and Liquor Stores","Beer, Wine, and Liquor Stores",332 W Elkhorn Ave,Estes Park,CO,80517
sg:af5c8d40aefa4b6bae91921c243f6564,Estes Mountain Lodge,Traveler Accommodation,Hotels (except Casino Hotels) and Motels,1120 Big Thompson Ave,Estes Park,CO,80517
sg:4edb601b227548899e47ee8e7d718858,Silver Moon Inn,Traveler Accommodation,Hotels (except Casino Hotels) and Motels,175 Spruce Dr,Estes Park,CO,80517
sg:0cdaa3a22afb457eac1ebe25915c0ba9,La Cocina de Mama,Restaurants and Other Eating Places,Full-Service Restaurants,361 S Saint Vrain Ave,Estes Park,CO,80517
sg:ded9b6d8b7704b089f88288ca282e401,Grant Spencer DC,Offices of Other Health Practitioners,Offices of Chiropractors,521 S St Vrain Ave Unit B Spencer Family Chiroprac,Estes Park,CO,80517
sg:0e89a3dc44cb48a88798ad619b2cef80,Hearing & Tinnitus Center of Estes Valley,Medical and Diagnostic Laboratories,Medical Laboratories,343 S Saint Vrain Ave Unit 7,Estes Park,CO,80517
sg:740c7b053c8f4d3fb995a836e9c6e97a,The Dunraven Inn,Restaurants and Other Eating Places,Full-Service Restaurants,2470 State Highway 66,Estes Park,CO,80517
sg:2c0f2e0282a644df814277f6dadc9e17,Hunters Chophouse,Restaurants and Other Eating Places,Full-Service Restaurants,1690 Big Thompson Ave,Estes Park,CO,80517
sg:33b6d64f71d141db8939bdd96a751746,Wild Child,Religious Organizations,Religious Organizations,1751 N Lake Ave,Estes Park,CO,80517
sg:a5851d58b8a743c1be6739f26da08c19,Coyote Mountain Lodge,Traveler Accommodation,Hotels (except Casino Hotels) and Motels,1340 Big Thompson Ave,Estes Park,CO,80517
sg:8beaf4635ea54af5a7bfe41d0e912287,Estes Satellite & Communications,Wired and Wireless Telecommunications Carriers,Wireless Telecommunications Carriers (except Satellite),1120 Manford Ave,Estes Park,CO,80517
sg:35adc322a0c141b59c8f1b9748dd3192,Specialty Clinic,Offices of Physicians,Offices of Physicians (except Mental Health Specialists),555 Prospect Ave,Estes Park,CO,80517
sg:3010761d7a3a440597adfee863f72e6e,Estes Park Sweatshirt Center,Clothing Stores,Women's Clothing Stores,117 W Elkhorn Ave,Estes Park,CO,80517
sg:c595d752fb064487b7d3b72fceb6a4ad,Estes Valley Counseling,Offices of Other Health Practitioners,Offices of Mental Health Practitioners (except Physicians),1200 Graves Ave Ste 203 Susan Bellas Ms Lpc,Estes Park,CO,80517
sg:4a101b32337b489e8fd0c61572c1c970,Upper Beaver Meadows,"Museums, Historical Sites, and Similar Institutions",Nature Parks and Other Similar Institutions,Upper Beaver Meadows Rd,Estes Park,CO,80517
sg:e531f75255414c7a8fa3e0dba43db8ec,Laura's Fine Candies,Specialty Food Stores,Confectionery and Nut Stores,129 E Elkhorn Ave,Estes Park,CO,80517
sg:2ec8163a9da145539f531e2c97f8b4bb,Timberline Medical PC,Offices of Physicians,Offices of Physicians (except Mental Health Specialists),131 Stanley Ave Ste 202,Estes Park,CO,80517
sg:430590aaf44e4ad1818636af7155be13,Rocky Mountain Wildflowers,Florists,Florists,513 Big Thompson Ave,Estes Park,CO,80517
sg:2a80231aad3b4baaaeca3b4b38bd5c5b,La Cabana Mexican Bar & Grill,Restaurants and Other Eating Places,Full-Service Restaurants,165 Virginia Dr,Estes Park,CO,80517
sg:f3f137f3ac8248a6943f892e67e7f84a,Bob & Tony's Pizza,Restaurants and Other Eating Places,Full-Service Restaurants,124 W Elkhorn Ave,Estes Park,CO,80517
sg:8a7f04c808b948138519cb7412c32753,Erik Stensland,"Other Professional, Scientific, and Technical Services","Photography Studios, Portrait",203 Park Ln Images Of Rmnp,Estes Park,CO,80517
sg:7a6001cb15a748c196383e4d345fde00,St Francis of Assisi,Religious Organizations,Religious Organizations,3480 Saint Francis Way,Estes Park,CO,80517
sg:3d434ebc002f478ea4ffabe2ccfd6ee9,The Gold Mine,"Jewelry, Luggage, and Leather Goods Stores",Jewelry Stores,230 W Elkhorn Ave,Estes Park,CO,80517
sg:f43ccbfe678346cdbd168050143ad2df,Latitude105,Restaurants and Other Eating Places,Full-Service Restaurants,101 S Saint Vrain Ave,Estes Park,CO,80517
sg:0c481302105947e1807c9690b8f4bb47,China Garden Asian Grill,Restaurants and Other Eating Places,Full-Service Restaurants,460 W Riverside Dr,Estes Park,CO,80517
sg:4cb34522f0f04652a5f5beb05bd6ffcd,Sweet Basilico Italian Cuisine,Restaurants and Other Eating Places,Full-Service Restaurants,430 Prospect Village Dr,Estes Park,CO,80517
sg:ce852bc4a1a34b39931b696f4f5d447c,Lizzie's Boutique,Used Merchandise Stores,Used Merchandise Stores,453 W Elkhorn Ave,Estes Park,CO,80517
sg:059922b891e34cb9943b1380f4b16e56,Rocky Mountain Connection,Shoe Stores,Shoe Stores,141 E Elkhorn Ave,Estes Park,CO,80517
sg:42f5d032b3694f52826d6bca6f09b989,Hi Country Stables,"Office Supplies, Stationery, and Gift Stores","Gift, Novelty, and Souvenir Stores",Moraine Park Rd,Estes Park,CO,80517
sg:26836d2a87f24e249141ccb9622df82f,Generations Salon & Day Spa,Personal Care Services,Beauty Salons,308 E Elkhorn Ave Piccadilly Square,Estes Park,CO,80517
sg:38227448f45b4a758af5baeb10b34b3e,Jackson's Stables,"Office Supplies, Stationery, and Gift Stores","Gift, Novelty, and Souvenir Stores",2515 Tunnel Rd,Estes Park,CO,80511
sg:922dda9faed44aaf98b9a97f17663fbf,River Spruce,Traveler Accommodation,Hotels (except Casino Hotels) and Motels,2334 State Highway 66,Estes Park,CO,80517
sg:558a9258855d43ca8a66a24e6f10ab29,Bird & Jim,Restaurants and Other Eating Places,Full-Service Restaurants,915 Moraine Ave,Estes Park,CO,80517
sg:3f5038ef69574d2ab5d52eec9d2c96af,Elizabeth Guild,Used Merchandise Stores,Used Merchandise Stores,443 W Elkhorn Ave,Estes Park,CO,80517
sg:a20505dca4084478825fbffd6fec0a9b,Woodlands On Fall River,Traveler Accommodation,Hotels (except Casino Hotels) and Motels,1888 Fall River Rd,Estes Park,CO,80517
sg:8e081c48881144eaa89038c6e3fdc1c8,Molly B Restaurant,Restaurants and Other Eating Places,Full-Service Restaurants,200 Moraine Ave,Estes Park,CO,80517
sg:364637bb60724ed782209736fd4857be,Estes Park Piano Tuner,"Sporting Goods, Hobby, and Musical Instrument Stores",Musical Instrument and Supplies Stores,1445 Matthew Cir,Estes Park,CO,80517
sg:9ff1819ef0d94a02affa9ed53bdfdd81,Rauk Daniel M DDS,Offices of Dentists,Offices of Dentists,600 S Saint Vrain Ave Unit 6,Estes Park,CO,80517
sg:e1d33358b23049f0867476495aaf15ea,Oja Eugene E Jr DDS,Offices of Dentists,Offices of Dentists,1861 Marys Lake Rd,Estes Park,CO,80517
sg:1905fa90c1a34f90a00e1442d1a75f98,Stanley Hotel,Traveler Accommodation,Hotels (except Casino Hotels) and Motels,333 E Wonder View Ave,Estes Park,CO,80517
sg:59700912a2ed4aa2a25b816651988e8a,Elk Meadow Lodge & RV Resort,Traveler Accommodation,Hotels (except Casino Hotels) and Motels,1665 State Highway 66,Estes Park,CO,80517
sg:d5f46f99ae8649bd9523f12b4bfec855,Estes Park Family Photography,"Other Professional, Scientific, and Technical Services","Photography Studios, Portrait",525 Pine River Ln Ste B,Estes Park,CO,80517
sg:f0c97fd7419048aaa1d472736f3599bd,Trendz,"General Merchandise Stores, including Warehouse Clubs and Supercenters",All Other General Merchandise Stores,100 E Elkhorn Ave,Estes Park,CO,80517
sg:efc5dbb388e844f1bb417e09d10c44a9,Animal Medical Center of Estes Park,"Other Professional, Scientific, and Technical Services",Veterinary Services,1260 Manford Ave,Estes Park,CO,80517
sg:ff6a5aa096a4481b90b18f43edba771a,Solitude Cabins,Traveler Accommodation,Hotels (except Casino Hotels) and Motels,1885 Sketch Box Ln Unit 7,Estes Park,CO,80517
sg:4cf1808454b245e58f74362fd89bef2e,Kent Mountain Adventure Center,"Automotive Parts, Accessories, and Tire Stores",Automotive Parts and Accessories Stores,875 Moraine Ave,Estes Park,CO,80517
sg:b7f32671db734ea69e92d73899eb68fe,Edward Jones,Other Financial Investment Activities,Miscellaneous Financial Investment Activities,501 Saint Vrain Ln Unit 202,Estes Park,CO,80517
sg:124397ddd0d94506a91d367eb365bc1a,Reel Mountain Theater,Motion Picture and Video Industries,Motion Picture Theaters (except Drive-Ins),543 Big Thompson Ave,Estes Park,CO,80517
sg:43a396c0aeb3403c8211e99941fd3862,Sasquatch Fly Fishing,Other Motor Vehicle Dealers,Boat Dealers,2515 Tunnel Rd,Estes Park,CO,80511
sg:6bc3ab2a71034692b9213d9ac05c86d6,Redrum Tattoo &amp Piercing Co,Personal Care Services,Other Personal Care Services,157 W Elkhorn Ave,Estes Park,CO,80517
sg:be4ecf036eb5470f8aa575829024a324,Fun City,Amusement Parks and Arcades,Amusement and Theme Parks,455 Prospect Village Dr,Estes Park,CO,80517
sg:6dc2116dbdf54d8cb61f55cdcd55c2a4,Estes Park Dept of Revenue,Administration of Economic Programs,Regulation and Administration of Transportation Programs,1601 Brodie Ave,Estes Park,CO,80517
sg:368e88db01294f96af0b37b3ce7a9279,Beef Jerky Outlet Estes Park,Grocery Stores,Supermarkets and Other Grocery (except Convenience) Stores,131 Virginia Dr,Estes Park,CO,80517
sg:48b027cd29d449f89d52bd7c4d514f28,Rocky Mountain Rush,Restaurants and Other Eating Places,Snack and Nonalcoholic Beverage Bars,212 E Elkhorn Ave,Estes Park,CO,80517
sg:a6e520f0b9044a5d9f692ffc28d86436,Lake Estes Marina,Other Motor Vehicle Dealers,Boat Dealers,1770 Big Thompson Ave,Estes Park,CO,80517
sg:8313223d82b24a08b63092d922fb158a,Javier Gomez Re Max Mountain Brokers,Offices of Real Estate Agents and Brokers,Offices of Real Estate Agents and Brokers,1200 Graves Ave,Estes Park,CO,80517
sg:fd1e29652ff24a73abbee9b73caf9663,Estes Valley Collision,Automotive Repair and Maintenance,"Automotive Body, Paint, and Interior Repair and Maintenance",611 Lone Pine Dr,Estes Park,CO,80517
sg:cdf1b99b666f4eb8806e00fbcf59242c,Parlour Salon and Spa,Personal Care Services,Beauty Salons,Stanley Hotel 333 E Wonderview Ave,Estes Park,CO,80517
sg:1c4f8775e141410f8d76dfc5769ebf51,Tiny Town Cabins,Traveler Accommodation,Hotels (except Casino Hotels) and Motels,830 Moraine Ave,Estes Park,CO,80517
sg:dce0420a1a7b45b298600bcbc9739876,Rocky Mountain Knife,"Sporting Goods, Hobby, and Musical Instrument Stores",Sporting Goods Stores,125 Moraine Ave,Estes Park,CO,80517
sg:a79f696a5dc54c17979919fb01537643,Casa Grande Mexican Restaurant,Restaurants and Other Eating Places,Full-Service Restaurants,210 E Elkhorn Ave,Estes Park,CO,80517
sg:0438c555240e4b53b386fb8b04fb0c27,Cabin Fever,"Jewelry, Luggage, and Leather Goods Stores",Jewelry Stores,213 W Elkhorn Ave,Estes Park,CO,80517
sg:321997719dda4f7cb0c1baf434eb3558,Dad's Maytag Laundry,Drycleaning and Laundry Services,Drycleaning and Laundry Services (except Coin-Operated),457 E Wonder View Ave,Estes Park,CO,80517
sg:5c76271746894b759767d8b5cb14da5d,Dog & Agility Park,"Museums, Historical Sites, and Similar Institutions",Nature Parks and Other Similar Institutions,380 Community Dr,Estes Park,CO,80517
sg:232f334f6af14285bd2c7f2b17e64742,Himalayan Curry & Kebob,Restaurants and Other Eating Places,Full-Service Restaurants,101 Elkhorn Ave,Estes Park,CO,80517
sg:827b56d546e24ca183f75b3787535cca,Lumpy Ridge Brewing Co,Beverage Manufacturing,Breweries,531 S Saint Vrain Ave,Estes Park,CO,80517
sg:dfe4154a00e24a6495bafc3258a9b71d,The Ore Cart Rock Shop,"Jewelry, Luggage, and Leather Goods Stores",Jewelry Stores,119 W Elkhorn Ave,Estes Park,CO,80517
sg:f3ed31f4f65d486faa58e31492c1dc0f,7522 Automotive,"Automotive Parts, Accessories, and Tire Stores",Automotive Parts and Accessories Stores,1850 Acacia Dr,Estes Park,CO,80517
sg:fdc79e977cd94773bd09df9c3f219a79,Wheel Bar,Restaurants and Other Eating Places,Full-Service Restaurants,132 E Elkhorn Ave,Estes Park,CO,80517
sg:ae9844cfd12146368a013b856e7ce195,Crossroads Ministry,Religious Organizations,Religious Organizations,851 Dry Gulch Rd,Estes Park,CO,80517
sg:bb4d83c001724206b4c91daf8d143db2,Dairy Queen,Restaurants and Other Eating Places,Limited-Service Restaurants,218 E Elkhorn Ave,Estes Park,CO,80517
sg:4bcfb00d3b314bb2bf2694b7583dcf00,Trailhead Restaurant,Restaurants and Other Eating Places,Full-Service Restaurants,3450 Fall River Rd,Estes Park,CO,80517
sg:b5d62e9b2c4d4abe8e1ea973cc2e0527,Hotel Estes,Traveler Accommodation,Hotels (except Casino Hotels) and Motels,1240 Big Thompson Ave,Estes Park,CO,80517
sg:09e7c871e04e4baca518af291d0c246e,Kind Coffee,Restaurants and Other Eating Places,Snack and Nonalcoholic Beverage Bars,470 E Elkhorn Ave,Estes Park,CO,80517
sg:71ce92b5d855444f98d2133f4face0f7,Aspen Eye Center,Health and Personal Care Stores,Optical Goods Stores,600 S Saint Vrain Ave Unit 5,Estes Park,CO,80517
sg:b90583bbac2b4ecb94f6fbce7f8e6438,Vino Giu,Beverage Manufacturing,Wineries,207 Park Ln,Estes Park,CO,80517
sg:39ecd078337942dda89d1c2da1f1c783,National Park Gateway Stables,Traveler Accommodation,Hotels (except Casino Hotels) and Motels,4600 Fall River Rd,Estes Park,CO,80517
sg:ebe261fd66b34454ab52f76063a9e21b,Spur 66 Liquor,"Beer, Wine, and Liquor Stores","Beer, Wine, and Liquor Stores",900 Moraine Ave,Estes Park,CO,80517
sg:4e8ad8b490084e56a0968c07eb1a04ca,Avant Garde Aleworks,Beverage Manufacturing,Breweries,920 Dunraven St,Estes Park,CO,80517
sg:a46cd78e806044b0b2d3347eac7d892b,Open Air Adventure Park,Amusement Parks and Arcades,Amusement and Theme Parks,490 Prospect Village Dr,Estes Park,CO,80517
sg:c0a5d4ae7a88442e99008a4177f73984,Hollowell Park Trailhead,"Museums, Historical Sites, and Similar Institutions",Nature Parks and Other Similar Institutions,Bear Lake Rd,Estes Park,CO,80517
sg:c47cf907d291474da279ccaa3d883a90,Mary's Lake Lodge,Traveler Accommodation,Hotels (except Casino Hotels) and Motels,2625 Marys Lake Rd,Estes Park,CO,80517
sg:715c377d44434031830d022f817e2e28,Columbine Inn,Traveler Accommodation,Hotels (except Casino Hotels) and Motels,1540 Big Thompson Ave,Estes Park,CO,80517
sg:071c76845b4b49f2bc591b0b3ec8623b,KeyBank,Depository Credit Intermediation,Commercial Banking,541 Big Thompson Ave,Estes Park,CO,80517
sg:52af424d2e724dcf8d77557f0dc58d9b,Rocky Mountain Day Hikes,"Museums, Historical Sites, and Similar Institutions",Nature Parks and Other Similar Institutions,2283 Eagle Cliff Rd,Estes Park,CO,80517
sg:f3129b3e880c4c9f89f12ec1c2e11946,Smokin' Dave's BBQ & Brew Estes Park,Restaurants and Other Eating Places,Full-Service Restaurants,820 Moraine Ave,Estes Park,CO,80517
sg:5692603ecefd48448f0bc48971f770eb,Fun Trax,Other Amusement and Recreation Industries,Golf Courses and Country Clubs,455 Prospector Ln,Estes Park,CO,80517
sg:d07a1a153e55488997eed4ecff5ba8a7,Schrader Oil,Petroleum and Petroleum Products Merchant Wholesalers,Petroleum and Petroleum Products Merchant Wholesalers (except Bulk Stations and Terminals),561 Big Thompson Ave,Estes Park,CO,80517
sg:b03738b535ad40c19a80413f527e62c5,Sinclair Oil,Gasoline Stations,Gasoline Stations with Convenience Stores,1110 Woodstock Dr,Estes Park,CO,80517
sg:3473ed3424af4ee2875e028c62497d49,Elkhorn Lodge & Guest Ranch,Traveler Accommodation,Hotels (except Casino Hotels) and Motels,600 W Elkhorn Ave,Estes Park,CO,80517
sg:7c0caac5c1824b42b75df9c44f10fbdc,Ridgeline Tours,Restaurants and Other Eating Places,Snack and Nonalcoholic Beverage Bars,101 S Saint Vrain Ave,Estes Park,CO,80517
sg:09ad6b0fbe1b4e4b89cd95f785b3f123,Tom Thomas First Colorado Realty,Offices of Real Estate Agents and Brokers,Offices of Real Estate Agents and Brokers,523 Saint Vrain Ln,Estes Park,CO,80517
sg:29d21e4641e540f5ac0609d54f4211a1,Casey's Automotive,Automotive Repair and Maintenance,"Automotive Body, Paint, and Interior Repair and Maintenance",701 Elm Rd,Estes Park,CO,80517
sg:948c12cc5c1f4fc9b7592b9d629e76ab,Hayley's,Restaurants and Other Eating Places,Snack and Nonalcoholic Beverage Bars,102 E Elkhorn Ave,Estes Park,CO,80517
sg:a15e9fa35fee4abf9bdfecffcb707486,StoneBrook Resort,Traveler Accommodation,Hotels (except Casino Hotels) and Motels,1710 Fall River Rd,Estes Park,CO,80517
sg:39f498fb84d045498b1b9aa702f98c42,The Taffy Shop,Specialty Food Stores,Confectionery and Nut Stores,121 W Elkhorn Ave,Estes Park,CO,80517
sg:49a8acf1e11a4b7f9c3d98913c80e11c,Inspired Artisan Market &amp Studio,Building Material and Supplies Dealers,Paint and Wallpaper Stores,157 W Elkhorn Ave Ste 8,Estes Park,CO,80517
sg:a2f87e0442bd439480451e5f793b00cb,Rambo's Longhorn Liquor Mart,"Beer, Wine, and Liquor Stores","Beer, Wine, and Liquor Stores",1640 Big Thompson Ave,Estes Park,CO,80517
sg:f439bb882a8842e79b76156925e96330,Appenzell Inn,Traveler Accommodation,Hotels (except Casino Hotels) and Motels,1100 Big Thompson Ave,Estes Park,CO,80517
sg:88fc70fd02a14dde89730f23ac9f8812,McDonald's,Restaurants and Other Eating Places,Limited-Service Restaurants,501 Big Thompson Ave,Estes Park,CO,80517
sg:560ab62c4c534c1286325ae6fa7b0310,Bear Lake,"Museums, Historical Sites, and Similar Institutions",Nature Parks and Other Similar Institutions,Bear Lake Rd,Estes Park,CO,80517
sg:947f2ff69090418bb75cdcca71e67df2,Riverwalk Park,"Museums, Historical Sites, and Similar Institutions",Nature Parks and Other Similar Institutions,470 E Elkhorn Ave,Estes Park,CO,80517
sg:fdf45db3546c424f89ba802125d87b13,Serenity on the River,Traveler Accommodation,Hotels (except Casino Hotels) and Motels,2222 State Highway 66,Estes Park,CO,80517
sg:b607b00879f046f79ed8ed1f04245d95,Healing Waters Foundation,"Museums, Historical Sites, and Similar Institutions",Nature Parks and Other Similar Institutions,1632 Big Thompson Ave,Estes Park,CO,80517
sg:33006e64f0ab443a8795859f7a53bd55,Estes Park ATV Rental,Motor Vehicle and Motor Vehicle Parts and Supplies Merchant Wholesalers,Automobile and Other Motor Vehicle Merchant Wholesalers,222 E Elkhorn Ave,Estes Park,CO,80517
sg:78dd9b7565ec4595b636db5eb5f35725,Plum Creek Shoe Station,Shoe Stores,Shoe Stores,135 Moraine Ave,Estes Park,CO,80517
sg:8e492d605be947d2a9334ec4c4b86f27,El Mex Kal,Restaurants and Other Eating Places,Full-Service Restaurants,160 1st St,Estes Park,CO,80517
sg:ce44b5d451ef4ed092abaa605738eed7,Estes Park Aerial Tramway,Rail Transportation,Line-Haul Railroads,420 E Riverside Dr,Estes Park,CO,80517
sg:24019aa67f0044b3ac6827f82402dded,Purple Mountain Taffy Company,Specialty Food Stores,Confectionery and Nut Stores,121 E Elkhorn Ave,Estes Park,CO,80517
sg:05e37c15c3c746a9a82e0c6a139593b0,The Egg Of Estes,Restaurants and Other Eating Places,Full-Service Restaurants,393 E Elkhorn Ave,Estes Park,CO,80517
sg:a9e490329dd54f66bb67f4927862810b,Estes Park Dojo,Other Amusement and Recreation Industries,Fitness and Recreational Sports Centers,1755 Co-66,Estes Park,CO,80517
sg:af2262e82c744471ad85daac0c920050,Lithium,Clothing Stores,Women's Clothing Stores,128 E Elkhorn Ave,Estes Park,CO,80517
sg:a32fcc4551934c03ad9afbb0de9d1297,Lula W Dorsey Museum,"Museums, Historical Sites, and Similar Institutions",Museums,2515 Tunnel Rd,Estes Park,CO,80511
sg:c35cbf5190f241b98feee4cccf626f84,La Esmeralda Tamale House,Restaurants and Other Eating Places,Full-Service Restaurants,541 Big Thompson Ave,Estes Park,CO,80517
sg:62d3991de4f54b7e9756667a04c901db,The Baldpate Inn,Traveler Accommodation,Hotels (except Casino Hotels) and Motels,4900 State Hwy 7,Estes Park,CO,80517
sg:dd4e1bc9999241aca493d6d7a25272fe,Mountain Paradise Real Estate,Depository Credit Intermediation,Commercial Banking,255 Park Ln Ste 203,Estes Park,CO,80517
sg:db6af136483e451d8ee525e9ea82ca1a,Christian Church of Estes Park,Religious Organizations,Religious Organizations,4655 US Highway 36,Estes Park,CO,80517
sg:aad0f96f2741415d9610c813ea8a0e11,Unique Colorado Souvenir,"Office Supplies, Stationery, and Gift Stores","Gift, Novelty, and Souvenir Stores",222B E Elkhorn Ave,Estes Park,CO,80517
sg:667ecbcd742846e0a6e7e9ef72dffa68,Mountain Top Preschool And Child Care,Child Day Care Services,Child Day Care Services,1250 Woodstock Dr,Estes Park,CO,80517
sg:cfbb955999504143bf6cacb5461676e3,Red Rose Rock Shop & Museum,"Sporting Goods, Hobby, and Musical Instrument Stores","Hobby, Toy, and Game Stores",490 Moraine Ave,Estes Park,CO,80517
sg:0b1e1d557fc14ba0b7958e3984162373,Elements of Touch Wellness Spa,Personal Care Services,Other Personal Care Services,477 Pine River Ln,Estes Park,CO,80517
sg:887fc6a8c80a498eb51893d59c807fe2,Rocket Fizz,Specialty Food Stores,Confectionery and Nut Stores,356 Elkhorn Avenue #3,Estes Park,CO,80517
sg:fb6795e68f684a179f42c0b171228330,Brynwood On the River,Traveler Accommodation,Hotels (except Casino Hotels) and Motels,710 Moraine Ave,Estes Park,CO,80517
sg:7e05a4d923ac456a896d9c089c411641,Stitchin' Den,Building Material and Supplies Dealers,Paint and Wallpaper Stores,165 Virginia Dr,Estes Park,CO,80517
sg:3b720eae69c644649dc980bc4206f37d,Rocky Mountain Evagelical Free Church,Religious Organizations,Religious Organizations,451 Promontory Dr,Estes Park,CO,80517
sg:f9604532ae4a4bba92d3a405661b37b7,Pine Haven,Traveler Accommodation,Hotels (except Casino Hotels) and Motels,1580 Fall River Rd,Estes Park,CO,80517
sg:86ff60188a054395baf78633d5eb17bc,The Slab,Drinking Places (Alcoholic Beverages),Drinking Places (Alcoholic Beverages),116 E Elkhorn Ave,Estes Park,CO,80517
sg:ee019800060d4cc2a7cd6997ec117722,Bockelmann Family Chiropractic,Offices of Other Health Practitioners,Offices of Chiropractors,521 S Saint Vrain Ave,Estes Park,CO,80517
sg:bcc389613c374e9696eaa3a65052bb72,Performance Park,"Museums, Historical Sites, and Similar Institutions",Nature Parks and Other Similar Institutions,Performance Park,Estes Park,CO,80517
sg:30887a83732c40a48f20af6969c7bd2e,Raven's Roast Coffee Lounge,Restaurants and Other Eating Places,Snack and Nonalcoholic Beverage Bars,157 W Elkhorn Ave,Estes Park,CO,80517
sg:a83561d5e4984845b81c2dcfa98c3b41,Rocky Mountain Tops,Clothing Stores,Women's Clothing Stores,101 E Elkhorn Ave,Estes Park,CO,80517
sg:e5f867de3d81415b8c0fa0d4f2a35074,The Grubsteak Restaurant,Restaurants and Other Eating Places,Full-Service Restaurants,134 W Elkhorn Ave,Estes Park,CO,80517
sg:bcfcf1191182429ba1704d2159e2d0cb,Taharaa Mountain Lodge,Traveler Accommodation,Hotels (except Casino Hotels) and Motels,3110 S St Vrain Ave,Estes Park,CO,80517
sg:ed9bd3141cae48dbb57a650af3ce9895,April Allen RE MAX Mountain Brokers,Offices of Real Estate Agents and Brokers,Offices of Real Estate Agents and Brokers,1200 Graves Ave,Estes Park,CO,80517
sg:d70a34763ca643a592b569ae7c85a78c,Alpenglow Images &amp Accents,Other Miscellaneous Store Retailers,Art Dealers,145 E Elkhorn Ave,Estes Park,CO,80517
sg:94fbc39e9daf49778cab36d93ca754d5,Seventh Day Adventist Church,Religious Organizations,Religious Organizations,Valley Rd & W Elkhor,Estes Park,CO,80517
sg:707afccff1a64b0fad1548e0a8e3166d,Blue Door,Traveler Accommodation,Hotels (except Casino Hotels) and Motels,1220 Big Thompson Ave,Estes Park,CO,80517
sg:c82bd1545cfd440dad0a66aaff8aded1,Lithium,Clothing Stores,Women's Clothing Stores,204 W Elkhorn Ave,Estes Park,CO,80517
sg:61a40ce679594fee9c951fb2c7de9e06,Castle Mountain Lodge,Traveler Accommodation,Hotels (except Casino Hotels) and Motels,1520 Fall River Rd,Estes Park,CO,80517
sg:bfdebe1624804cd9a1a41ba0dbd78af6,Estes Park Visitors Center,"General Merchandise Stores, including Warehouse Clubs and Supercenters",All Other General Merchandise Stores,500 Big Thompson Ave,Estes Park,CO,80517
sg:ea002c0392234139917aae9354980a2a,C T M Automotive Repair,"Automotive Parts, Accessories, and Tire Stores",Automotive Parts and Accessories Stores,911 Dunraven St,Estes Park,CO,80517
sg:edea51df89364fa3bd2625384dd6ced9,Fire Mountain Programs,Home Health Care Services,Home Health Care Services,5532 US Highway 36,Estes Park,CO,80517
sg:3dd1c60c60b946689ae3ff5260182e66,Wear Me Out T's,"Office Supplies, Stationery, and Gift Stores","Gift, Novelty, and Souvenir Stores",157 E Elkhorn Ave,Estes Park,CO,80517
sg:e04bab3553f4405097500b17d7f7b4f5,Insurance Associates Inc,"Agencies, Brokerages, and Other Insurance Related Activities",Insurance Agencies and Brokerages,363 E Elkhorn Ave,Estes Park,CO,80517
sg:95aa08b29da14e63b50827946ab3fcf2,Ez Auto Wash,Gasoline Stations,Gasoline Stations with Convenience Stores,534 S Saint Vrain Ave,Estes Park,CO,80517
sg:f4a83c5d6ce54edb843a2682ccdcae71,Confluence Park,"Museums, Historical Sites, and Similar Institutions",Nature Parks and Other Similar Institutions,Rockwell St & Riverside Dr,Estes Park,CO,80517
sg:99d179d0008d443f986be0f228caf603,Affinity Massage and Wellness Center,Personal Care Services,Other Personal Care Services,1182 Graves Ave Unit C,Estes Park,CO,80517
sg:db8ca1f17ce245afae3b964e9df0b46d,Green Jeep Tour,Restaurants and Other Eating Places,Snack and Nonalcoholic Beverage Bars,157 Moraine Ave,Estes Park,CO,80517
sg:ead1e6c7496444c9b6ba60c4d5745a7b,Summit View Restaurant,Restaurants and Other Eating Places,Full-Service Restaurants,6120 State Highway 7,Estes Park,CO,80517
sg:7221e12de7f84c2182ba1d032639bddc,Maria Gomez RE MAX MOUNTAIN BROKERS,Offices of Real Estate Agents and Brokers,Offices of Real Estate Agents and Brokers,1200 Graves Ave,Estes Park,CO,80517
sg:712d6c72e5c34d85b66fdbff78750d59,Aspen Dental Center,Offices of Dentists,Offices of Dentists,600 S Saint Vrain Ave Unit 3,Estes Park,CO,80517
sg:254a9c628449429e9be6bb0b91c9e22e,Cinnamon's Bakery,Restaurants and Other Eating Places,Snack and Nonalcoholic Beverage Bars,920 W Elkhorn Ave,Estes Park,CO,80517
sg:203707f792624f079d2b116d9e2a4425,The Rustic Acre,Traveler Accommodation,Hotels (except Casino Hotels) and Motels,650 S Saint Vrain Ave,Estes Park,CO,80517
sg:a6444a9514e342f49bfca5f5715937be,Pati's Hair Care Best Little Hair House In Estes,Personal Care Services,Beauty Salons,455 W Elkhorn Ave,Estes Park,CO,80517
sg:edb5b6c0afb5426185f3d7f55651e2d6,Affordable Tree Service FNL,Building Material and Supplies Dealers,Hardware Stores,3104 Carriage Dr,Estes Park,CO,80517
sg:35238802070f4b5eb2cca7c5f7a123e1,Dermody Village Barber Shop,Personal Care Services,Beauty Salons,151 Virginia Dr,Estes Park,CO,80517
sg:2d9a0be53b184b638e4ce38407e6ea17,Accel Computer Services,Health and Personal Care Stores,Food (Health) Supplement Stores,790 Castle Mountain Rd,Estes Park,CO,80517
sg:fdcd511cbcd546d1b26485cb97c37985,Images of Estes Park,"Other Professional, Scientific, and Technical Services","Photography Studios, Portrait",181 Riverside Dr,Estes Park,CO,80517
sg:f8e6603ca8ea4f94a1654b06b8e59476,Fish Jeff Vet,"Other Professional, Scientific, and Technical Services",Veterinary Services,1260 Manford Ave,Estes Park,CO,80517
sg:19fc65d966eb4db188e71d2f2763f581,Autoworks,Automotive Repair and Maintenance,General Automotive Repair,910 Dunraven St,Estes Park,CO,80517
sg:903b68ae83974c3bb906589391cf7150,The Mystic Mustang Tattoo Studio,Personal Care Services,Other Personal Care Services,222 East Elkhorn Ave Ste C,Estes Park,CO,80517
sg:200f99a8f3ec4aceaa99f3eb535df9f2,Trout Haven Fishing Pond,Other Motor Vehicle Dealers,Boat Dealers,810 Moraine Ave,Estes Park,CO,80517
sg:feba3a9b44964adba53b76073975d4f2,Summit Church,Religious Organizations,Religious Organizations,600 S Saint Vrain Ave Unit 1,Estes Park,CO,80517
sg:ae3763d376d94a5ea5fd186b45bc0ff9,Rocky Mountain National Park,"Museums, Historical Sites, and Similar Institutions",Nature Parks and Other Similar Institutions,203 Park Ln,Estes Park,CO,80517
sg:84a85c196fee4368a4b7bf49f6e0db45,Peak to Peak Scenic Byway,"Museums, Historical Sites, and Similar Institutions",Nature Parks and Other Similar Institutions,645 Co-7,Estes Park,CO,80517
sg:15ecd9990a0841b9a28e37e5af8db7bc,The Wild Rose Food & Spirits,Restaurants and Other Eating Places,Full-Service Restaurants,157 W Elkhorn Ave,Estes Park,CO,80517
sg:50b15aa0076142029143666a6b72eade,The View,Restaurants and Other Eating Places,Full-Service Restaurants,300 Riverside Dr,Estes Park,CO,80517
sg:6ce672c75a1b460c9216ee62db77a279,Caramel Corn,Specialty Food Stores,Confectionery and Nut Stores,144 E Elkhorn Ave,Estes Park,CO,80517
sg:185b93c6ae1140eca74cafd1f340f06a,Two Blondes and A Salon,Personal Care Services,Beauty Salons,541 Lone Pine Dr,Estes Park,CO,80517
sg:04e7ad14e4294fc5a8645c80db27d572,Thirty Below Leather,Other Leather and Allied Product Manufacturing,Women's Handbag and Purse Manufacturing,356 E Elkhorn Ave,Estes Park,CO,80517
sg:be4cd1494af445359ec9ed095ca8dcf8,The Farmhouse Market,"Sporting Goods, Hobby, and Musical Instrument Stores","Sewing, Needlework, and Piece Goods Stores",423 W Elkhorn Ave,Estes Park,CO,80517
sg:ef3d4b389d5d4425bbe5df54694f6e70,The Enchanted Florist,Florists,Florists,162 S Saint Vrain Ave,Estes Park,CO,80517
sg:b40fd90722e842d1bfaa218205ae134d,Aspen Lodge Resort & Spa,Traveler Accommodation,Hotels (except Casino Hotels) and Motels,6120 State Highway 7,Estes Park,CO,80517
sg:91fc6b87ca944a95830821fd061e2b60,Moose Creek,Clothing Stores,Women's Clothing Stores,125 Moraine Ave,Estes Park,CO,80517
sg:a306a62eaaca474d8b13357c0b874f10,Jesse Lynne Designs,Personal Care Services,Nail Salons,178 S Saint Vrain Ave,Estes Park,CO,80517
sg:777c2d5a50da41459eb929d02c477479,Nepal's Cafe,Restaurants and Other Eating Places,Full-Service Restaurants,184 E Elkhorn Ave Unit H,Estes Park,CO,80517
sg:c500dd40f53f493fb9a34457410a8495,Beaver Brook On The River,Traveler Accommodation,Hotels (except Casino Hotels) and Motels,1700 State Highway 66,Estes Park,CO,80517
sg:0fbbd651648c4f248c8a1c8e839fdfcc,National Park Village South,Lessors of Real Estate,Malls,900 Moraine Ave,Estes Park,CO,80517
sg:bbf2c8cfd0aa4a8c920c42085cd4d47a,Amberwood,Traveler Accommodation,Hotels (except Casino Hotels) and Motels,1889 Fall River Rd,Estes Park,CO,80517
sg:81cec7b31e6d4e26bc4bd153b0605d27,Lonigan's,Restaurants and Other Eating Places,Full-Service Restaurants,110 W Elkhorn Ave,Estes Park,CO,80517
sg:31de4c7f05ed42f9baaf01e08229b907,Seeing Hands Massage,Personal Care Services,Other Personal Care Services,157 W Elkhorn Ste 15 A,Estes Park,CO,80517
sg:57793d83397b414f868a12bbf2cf03ea,Today's Nail,Personal Care Services,Nail Salons,464 Riverside Dr,Estes Park,CO,80517
sg:7b260149fe4f4e179d5e43264d41ceb4,Coffee on the Rocks,Restaurants and Other Eating Places,Snack and Nonalcoholic Beverage Bars,510 Moraine Ave,Estes Park,CO,80517
sg:3002035e2042473a8ffab9b9c8d43e1e,Spencer Family Chiropractic,Offices of Other Health Practitioners,Offices of Chiropractors,521 S Saint Vrain Ave Unit B,Estes Park,CO,80517
sg:55888b557d0847aa86f455c63b0b8693,Penelope's Old Time Burgers,Restaurants and Other Eating Places,Full-Service Restaurants,229 W Elkhorn Ave,Estes Park,CO,80517
sg:5d39435ddcab4700b8f1442008072382,Estes Park KOA Campground,RV (Recreational Vehicle) Parks and Recreational Camps,RV (Recreational Vehicle) Parks and Campgrounds,2051 Big Thompson Ave,Estes Park,CO,80517
sg:deb3dec6a2ae44b789b378bffa4727c5,Rocky Mountain Hotel & Conference Center,Traveler Accommodation,Hotels (except Casino Hotels) and Motels,1701 N Lake Ave,Estes Park,CO,80517
sg:2b1837a7051f48a8a20ebdb624862972,The Grey House,Clothing Stores,Women's Clothing Stores,130A E Elkhorn Ave,Estes Park,CO,80517
sg:287ea662494c465f8448e5443a71f7be,Estes Park Mountain Shop,"Sporting Goods, Hobby, and Musical Instrument Stores",Sporting Goods Stores,2050 Big Thompson Ave,Estes Park,CO,80517
sg:af0f9b6a413542bd8b881049f8d69708,Della Terra Mountain Chateau,Traveler Accommodation,Hotels (except Casino Hotels) and Motels,3501 Fall River Rd,Estes Park,CO,80517
sg:44cd9fb6bb7f47d3a3be43192e82f41b,Murphy's Resort,Traveler Accommodation,Hotels (except Casino Hotels) and Motels,1650 Big Thompson Ave,Estes Park,CO,80517
sg:67a50b7e45ca492aad7ac103be1774cf,MedX of Estes Park,Other Amusement and Recreation Industries,Fitness and Recreational Sports Centers,158 1st St,Estes Park,CO,80517
sg:e4b0e53e57ca4a90953868b3ddd34eab,Ensignal Verizon Wireless Premium Retailer,Wired and Wireless Telecommunications Carriers,Wireless Telecommunications Carriers (except Satellite),509 Big Thompson Ave Unit 1 Bldg F,Estes Park,CO,80517
sg:6b7e77f7b10f4276aaf40803760e2406,The Barrel Estes Park,"Beer, Wine, and Liquor Stores","Beer, Wine, and Liquor Stores",251 Moraine Ave,Estes Park,CO,80517
sg:2ffaccbfec80495b9f50f3a57d88fe2c,Flavors of the Rockies,Restaurants and Other Eating Places,Snack and Nonalcoholic Beverage Bars,101 W Elkhorn Ave Unit B,Estes Park,CO,80517
sg:fc5ea7d7d29c4034a7f43a0a4595c926,Community Hearing Center,Medical and Diagnostic Laboratories,Medical Laboratories,1186 Graves Ave Unit B,Estes Park,CO,80517
sg:239cc64c5b764ac38f645db2e89855d9,Cascades Restaurant & Lounge,Restaurants and Other Eating Places,Full-Service Restaurants,333 E Wonder View Ave,Estes Park,CO,80517
sg:3025d5b1c73e49cea118bf8138dcb5f8,Cafe at Trail Ridge,Restaurants and Other Eating Places,Full-Service Restaurants,945 Moraine Ave,Estes Park,CO,80517
sg:f320b6d31f6345da87c01e8c3f792650,Estes Park Community Thrift Shop,Used Merchandise Stores,Used Merchandise Stores,1000 Big Thompson Ave,Estes Park,CO,80517
sg:40384f77700f4542b8b3071cb33762fc,The Lazy Moose,Clothing Stores,Women's Clothing Stores,140 E Elkhorn Ave,Estes Park,CO,80517
sg:9313b122df6548b6a3fbbba275cb75c9,Donut Haus,Restaurants and Other Eating Places,Snack and Nonalcoholic Beverage Bars,342 Moraine Ave,Estes Park,CO,80517
sg:6c12b91411c34ab5bc8b8b17e74dfd36,IN Self Storage,Lessors of Real Estate,Lessors of Miniwarehouses and Self-Storage Units,1210 Woodstock Dr,Estes Park,CO,80517
sg:a6016580eb9d4cfd845dbbfcd81f8fd0,Estes Park Resort,Traveler Accommodation,Hotels (except Casino Hotels) and Motels,1700 Big Thompson Ave,Estes Park,CO,80517
sg:b4a090f05d2f4d7b8450c3277f951b3c,Miller's Indian Village Trading Post,Clothing Stores,Women's Clothing Stores,100 W Elkhorn Ave,Estes Park,CO,80517
sg:80ab8452cd834594ac465e666f0c7b19,Yesterday's Ice Cream Shoppe,Restaurants and Other Eating Places,Snack and Nonalcoholic Beverage Bars,191 W. Elkhorn Ave,Estes Park,CO,80517
sg:d6d95c85429e42a38ade0ed0c3b7b471,Estes Park Pet Lodge,Other Personal Services,Pet Care (except Veterinary) Services,1260 Manford Ave,Estes Park,CO,80517
sg:1ce6388d91d3458a8d8723902199e702,The Bears Den,"Office Supplies, Stationery, and Gift Stores","Gift, Novelty, and Souvenir Stores",857 Moraine Ave,Estes Park,CO,80517
sg:1738d643d19242abb1dc62a536d56510,Cafe de Pho Thai,Restaurants and Other Eating Places,Full-Service Restaurants,225 W Riverside Dr,Estes Park,CO,80517
sg:97009c3c8f434a7daec58aafb757cad1,Riverspointe Spa,Personal Care Services,Other Personal Care Services,121 Wiest Dr,Estes Park,CO,80517
sg:404a4986f00b4fce82146e774a70c4cc,Rocky Ridge Music Center,Other Amusement and Recreation Industries,Fitness and Recreational Sports Centers,465 Longs Peak Rd,Estes Park,CO,80517
sg:fe0bfd387d9f4cc1a4a211c01c1580f6,4 Seasons Inn,Traveler Accommodation,Hotels (except Casino Hotels) and Motels,1130 W Elkhorn Ave,Estes Park,CO,80517
sg:01c342f9275d47169542850e99152efd,Mama Rose's,Restaurants and Other Eating Places,Full-Service Restaurants,338 E Elkhorn Ave,Estes Park,CO,80517
sg:bae2836fd69544d6956921f64b1998ab,Allergy Partners of Northern Colorado,Offices of Physicians,Offices of Physicians (except Mental Health Specialists),555 Prospect Ave,Estes Park,CO,80517
sg:8e3bccbdaf6049c38c5f3dff22d14b20,Lake Estes Executive Golf Course,Other Amusement and Recreation Industries,Golf Courses and Country Clubs,690 Big Thompson Ave,Estes Park,CO,80517
sg:37265dbf49a847f8a84f3a542563e490,Mary's Lake Aspen Home,Traveler Accommodation,Hotels (except Casino Hotels) and Motels,2722 Kiowa Trl,Estes Park,CO,80517
sg:f3891744519f4bc7a0ead2ea446919c5,Sunnyside Knoll Resort,Traveler Accommodation,Hotels (except Casino Hotels) and Motels,1675 Fall River Rd,Estes Park,CO,80517
sg:1b7d4b14947645b6b1860bbb50e4d8e6,Prospect Park Living Center,Home Health Care Services,Home Health Care Services,555 Prospect Ave Ofc,Estes Park,CO,80517
sg:d4a7034610de49dc8eaaf3d18a77a31d,Creativity Cabin Estes Park,"Sporting Goods, Hobby, and Musical Instrument Stores","Sewing, Needlework, and Piece Goods Stores",342 W Riverside Dr,Estes Park,CO,80517
sg:8226fbe573e7459c8eb6e5bf9cfa4e1e,Estes Valley Recreation And Park District,Other Amusement and Recreation Industries,Fitness and Recreational Sports Centers,660 Community Dr,Estes Park,CO,80517
sg:7ef64dddd71049c895e274bd1bb56fc6,Renee Hodgden RE MAX Mountain Brokers,Offices of Real Estate Agents and Brokers,Offices of Real Estate Agents and Brokers,1200 Graves Ave,Estes Park,CO,80517
sg:10f9eb89332b4eb6bb2a135af43702c5,Hands Down Best In Town Therapeutic Massage,Personal Care Services,Other Personal Care Services,250 Moraine Ave,Estes Park,CO,80517
sg:269caf0c20a84a008b12494b6ffd3f9e,Dermatology Center of the Rockies,Offices of Physicians,Offices of Physicians (except Mental Health Specialists),555 Prospect Ave Ste F,Estes Park,CO,80517
sg:f4ffa60faa3048d9aac33d12f4de358c,Alpine Counseling Services,Offices of Other Health Practitioners,Offices of Mental Health Practitioners (except Physicians),363 E Elkhorn Ave Ste 301,Estes Park,CO,80517
sg:ba4c5528ab4340b9ac5576bd75e4b52f,Starbucks,Restaurants and Other Eating Places,Snack and Nonalcoholic Beverage Bars,451 E Wonder View Ave,Estes Park,CO,80517
